{
  "type": "FeatureCollection",
  "features": [
    {
      "type": "Feature",
      "geometry": {
        "type": "Point",
        "coordinates": [
          131.206028,
          34.001849
        ]
      },
      "properties": {
        "市区町村コード": 352021,
        "NO": 1,
        "都道府県名": "山口県",
        "市区町村名": "宇部市",
        "name": "際波街区公園",
        "名称_カナ": "キワナミガイクコウエン",
        "名称_英語": null,
        "address": "山口県宇部市東際波台七丁目",
        "方書": null,
        "設置位置": "公園の南東側",
        "男性トイレ総数": 2,
        "男性トイレ数（小便器）": 2.0,
        "男性トイレ数（和式）": null,
        "男性トイレ数（洋式）": null,
        "女性トイレ総数": 0,
        "女性トイレ数（和式）": null,
        "女性トイレ数（洋式）": null,
        "男女共用トイレ総数": 1,
        "男女共用トイレ数（和式）": 1.0,
        "男女共用トイレ数（洋式）": null,
        "多機能トイレ数": null,
        "車椅子使用者用トイレ有無": null,
        "乳幼児用設備設置トイレ有無": null,
        "オストメイト設置トイレ有無": null,
        "利用開始時間": null,
        "利用終了時間": null,
        "利用可能時間特記事項": null,
        "画像": null,
        "画像_ライセンス": null,
        "備考": null
      }
    },
    {
      "type": "Feature",
      "geometry": {
        "type": "Point",
        "coordinates": [
          131.217129,
          33.999267
        ]
      },
      "properties": {
        "市区町村コード": 352021,
        "NO": 2,
        "都道府県名": "山口県",
        "市区町村名": "宇部市",
        "name": "上中野街区公園",
        "名称_カナ": "カミナカノガイクコウエン",
        "名称_英語": null,
        "address": "山口県宇部市厚南北二丁目",
        "方書": null,
        "設置位置": "公園の南東側",
        "男性トイレ総数": 1,
        "男性トイレ数（小便器）": 1.0,
        "男性トイレ数（和式）": null,
        "男性トイレ数（洋式）": null,
        "女性トイレ総数": 0,
        "女性トイレ数（和式）": null,
        "女性トイレ数（洋式）": null,
        "男女共用トイレ総数": 1,
        "男女共用トイレ数（和式）": null,
        "男女共用トイレ数（洋式）": 1.0,
        "多機能トイレ数": null,
        "車椅子使用者用トイレ有無": null,
        "乳幼児用設備設置トイレ有無": null,
        "オストメイト設置トイレ有無": null,
        "利用開始時間": null,
        "利用終了時間": null,
        "利用可能時間特記事項": null,
        "画像": null,
        "画像_ライセンス": null,
        "備考": null
      }
    },
    {
      "type": "Feature",
      "geometry": {
        "type": "Point",
        "coordinates": [
          131.203344,
          33.968232
        ]
      },
      "properties": {
        "市区町村コード": 352021,
        "NO": 3,
        "都道府県名": "山口県",
        "市区町村名": "宇部市",
        "name": "第一原街区公園",
        "名称_カナ": "ダイイチハラガイクコウエン",
        "名称_英語": null,
        "address": "山口県宇部市大字東須恵",
        "方書": null,
        "設置位置": "南東側の入口付近",
        "男性トイレ総数": 0,
        "男性トイレ数（小便器）": null,
        "男性トイレ数（和式）": null,
        "男性トイレ数（洋式）": null,
        "女性トイレ総数": 0,
        "女性トイレ数（和式）": null,
        "女性トイレ数（洋式）": null,
        "男女共用トイレ総数": 1,
        "男女共用トイレ数（和式）": null,
        "男女共用トイレ数（洋式）": 1.0,
        "多機能トイレ数": null,
        "車椅子使用者用トイレ有無": null,
        "乳幼児用設備設置トイレ有無": null,
        "オストメイト設置トイレ有無": null,
        "利用開始時間": null,
        "利用終了時間": null,
        "利用可能時間特記事項": null,
        "画像": null,
        "画像_ライセンス": null,
        "備考": null
      }
    },
    {
      "type": "Feature",
      "geometry": {
        "type": "Point",
        "coordinates": [
          131.223364,
          34.000637
        ]
      },
      "properties": {
        "市区町村コード": 352021,
        "NO": 4,
        "都道府県名": "山口県",
        "市区町村名": "宇部市",
        "name": "西宇部街区公園",
        "名称_カナ": "ニシウベガイクコウエン",
        "名称_英語": null,
        "address": "山口県宇部市西宇部南二丁目",
        "方書": null,
        "設置位置": "南側の入口付近",
        "男性トイレ総数": 1,
        "男性トイレ数（小便器）": 1.0,
        "男性トイレ数（和式）": null,
        "男性トイレ数（洋式）": null,
        "女性トイレ総数": 0,
        "女性トイレ数（和式）": null,
        "女性トイレ数（洋式）": null,
        "男女共用トイレ総数": 1,
        "男女共用トイレ数（和式）": null,
        "男女共用トイレ数（洋式）": 1.0,
        "多機能トイレ数": 1.0,
        "車椅子使用者用トイレ有無": "有",
        "乳幼児用設備設置トイレ有無": "有",
        "オストメイト設置トイレ有無": null,
        "利用開始時間": null,
        "利用終了時間": null,
        "利用可能時間特記事項": null,
        "画像": null,
        "画像_ライセンス": null,
        "備考": null
      }
    },
    {
      "type": "Feature",
      "geometry": {
        "type": "Point",
        "coordinates": [
          131.225348,
          34.004415
        ]
      },
      "properties": {
        "市区町村コード": 352021,
        "NO": 5,
        "都道府県名": "山口県",
        "市区町村名": "宇部市",
        "name": "西ヶ丘街区公園",
        "名称_カナ": "ニシガオカガイクコウエン",
        "名称_英語": null,
        "address": "山口県宇部市西宇部北七丁目",
        "方書": null,
        "設置位置": "南側の入口付近",
        "男性トイレ総数": 0,
        "男性トイレ数（小便器）": null,
        "男性トイレ数（和式）": null,
        "男性トイレ数（洋式）": null,
        "女性トイレ総数": 0,
        "女性トイレ数（和式）": null,
        "女性トイレ数（洋式）": null,
        "男女共用トイレ総数": 1,
        "男女共用トイレ数（和式）": 1.0,
        "男女共用トイレ数（洋式）": null,
        "多機能トイレ数": null,
        "車椅子使用者用トイレ有無": null,
        "乳幼児用設備設置トイレ有無": null,
        "オストメイト設置トイレ有無": null,
        "利用開始時間": null,
        "利用終了時間": null,
        "利用可能時間特記事項": null,
        "画像": null,
        "画像_ライセンス": null,
        "備考": null
      }
    },
    {
      "type": "Feature",
      "geometry": {
        "type": "Point",
        "coordinates": [
          131.223719,
          34.006262
        ]
      },
      "properties": {
        "市区町村コード": 352021,
        "NO": 6,
        "都道府県名": "山口県",
        "市区町村名": "宇部市",
        "name": "里の尾街区公園",
        "名称_カナ": "サトノオガイクコウエン",
        "名称_英語": null,
        "address": "山口県宇部市西宇部北三丁目",
        "方書": null,
        "設置位置": "公園の東側",
        "男性トイレ総数": 2,
        "男性トイレ数（小便器）": 2.0,
        "男性トイレ数（和式）": null,
        "男性トイレ数（洋式）": null,
        "女性トイレ総数": 0,
        "女性トイレ数（和式）": null,
        "女性トイレ数（洋式）": null,
        "男女共用トイレ総数": 1,
        "男女共用トイレ数（和式）": 1.0,
        "男女共用トイレ数（洋式）": null,
        "多機能トイレ数": null,
        "車椅子使用者用トイレ有無": null,
        "乳幼児用設備設置トイレ有無": null,
        "オストメイト設置トイレ有無": null,
        "利用開始時間": null,
        "利用終了時間": null,
        "利用可能時間特記事項": null,
        "画像": null,
        "画像_ライセンス": null,
        "備考": null
      }
    },
    {
      "type": "Feature",
      "geometry": {
        "type": "Point",
        "coordinates": [
          131.231929,
          34.008185
        ]
      },
      "properties": {
        "市区町村コード": 352021,
        "NO": 7,
        "都道府県名": "山口県",
        "市区町村名": "宇部市",
        "name": "山の手街区公園",
        "名称_カナ": "ヤマノテガイクコウエン",
        "名称_英語": null,
        "address": "山口県宇部市山の手町",
        "方書": null,
        "設置位置": "公園の東側、自治会館の前",
        "男性トイレ総数": 0,
        "男性トイレ数（小便器）": null,
        "男性トイレ数（和式）": null,
        "男性トイレ数（洋式）": null,
        "女性トイレ総数": 0,
        "女性トイレ数（和式）": null,
        "女性トイレ数（洋式）": null,
        "男女共用トイレ総数": 1,
        "男女共用トイレ数（和式）": 1.0,
        "男女共用トイレ数（洋式）": null,
        "多機能トイレ数": null,
        "車椅子使用者用トイレ有無": null,
        "乳幼児用設備設置トイレ有無": null,
        "オストメイト設置トイレ有無": null,
        "利用開始時間": null,
        "利用終了時間": null,
        "利用可能時間特記事項": null,
        "画像": null,
        "画像_ライセンス": null,
        "備考": null
      }
    },
    {
      "type": "Feature",
      "geometry": {
        "type": "Point",
        "coordinates": [
          131.226692,
          34.009151
        ]
      },
      "properties": {
        "市区町村コード": 352021,
        "NO": 8,
        "都道府県名": "山口県",
        "市区町村名": "宇部市",
        "name": "松見街区公園",
        "名称_カナ": "マツミガイクコウエン",
        "名称_英語": null,
        "address": "山口県宇部市西宇部北六丁目",
        "方書": null,
        "設置位置": "公園の南側",
        "男性トイレ総数": 0,
        "男性トイレ数（小便器）": null,
        "男性トイレ数（和式）": null,
        "男性トイレ数（洋式）": null,
        "女性トイレ総数": 0,
        "女性トイレ数（和式）": null,
        "女性トイレ数（洋式）": null,
        "男女共用トイレ総数": 1,
        "男女共用トイレ数（和式）": 1.0,
        "男女共用トイレ数（洋式）": null,
        "多機能トイレ数": null,
        "車椅子使用者用トイレ有無": null,
        "乳幼児用設備設置トイレ有無": null,
        "オストメイト設置トイレ有無": null,
        "利用開始時間": null,
        "利用終了時間": null,
        "利用可能時間特記事項": null,
        "画像": null,
        "画像_ライセンス": null,
        "備考": null
      }
    },
    {
      "type": "Feature",
      "geometry": {
        "type": "Point",
        "coordinates": [
          131.203458,
          33.98884
        ]
      },
      "properties": {
        "市区町村コード": 352021,
        "NO": 9,
        "都道府県名": "山口県",
        "市区町村名": "宇部市",
        "name": "黒石街区公園",
        "名称_カナ": "クロイシガイクコウエン",
        "名称_英語": null,
        "address": "山口県宇部市大字東須恵",
        "方書": null,
        "設置位置": "北側の入口付近",
        "男性トイレ総数": 0,
        "男性トイレ数（小便器）": null,
        "男性トイレ数（和式）": null,
        "男性トイレ数（洋式）": null,
        "女性トイレ総数": 0,
        "女性トイレ数（和式）": null,
        "女性トイレ数（洋式）": null,
        "男女共用トイレ総数": 1,
        "男女共用トイレ数（和式）": 1.0,
        "男女共用トイレ数（洋式）": null,
        "多機能トイレ数": null,
        "車椅子使用者用トイレ有無": null,
        "乳幼児用設備設置トイレ有無": null,
        "オストメイト設置トイレ有無": null,
        "利用開始時間": null,
        "利用終了時間": null,
        "利用可能時間特記事項": null,
        "画像": null,
        "画像_ライセンス": null,
        "備考": null
      }
    },
    {
      "type": "Feature",
      "geometry": {
        "type": "Point",
        "coordinates": [
          131.215969,
          33.981905
        ]
      },
      "properties": {
        "市区町村コード": 352021,
        "NO": 10,
        "都道府県名": "山口県",
        "市区町村名": "宇部市",
        "name": "東割街区公園",
        "名称_カナ": "ヒガシワリガイクコウエン",
        "名称_英語": null,
        "address": "山口県宇部市大字妻崎開作",
        "方書": null,
        "設置位置": "南西側の入口付近",
        "男性トイレ総数": 1,
        "男性トイレ数（小便器）": 1.0,
        "男性トイレ数（和式）": null,
        "男性トイレ数（洋式）": null,
        "女性トイレ総数": 0,
        "女性トイレ数（和式）": null,
        "女性トイレ数（洋式）": null,
        "男女共用トイレ総数": 1,
        "男女共用トイレ数（和式）": null,
        "男女共用トイレ数（洋式）": 1.0,
        "多機能トイレ数": null,
        "車椅子使用者用トイレ有無": null,
        "乳幼児用設備設置トイレ有無": null,
        "オストメイト設置トイレ有無": null,
        "利用開始時間": null,
        "利用終了時間": null,
        "利用可能時間特記事項": null,
        "画像": null,
        "画像_ライセンス": null,
        "備考": null
      }
    },
    {
      "type": "Feature",
      "geometry": {
        "type": "Point",
        "coordinates": [
          131.200657,
          33.984983
        ]
      },
      "properties": {
        "市区町村コード": 352021,
        "NO": 11,
        "都道府県名": "山口県",
        "市区町村名": "宇部市",
        "name": "黒石公園",
        "名称_カナ": "クロイシコウエン",
        "名称_英語": null,
        "address": "山口県宇部市大字東須恵",
        "方書": null,
        "設置位置": "公園の南西側、松江八幡宮（黒石神社）境内北側",
        "男性トイレ総数": 3,
        "男性トイレ数（小便器）": 2.0,
        "男性トイレ数（和式）": 1.0,
        "男性トイレ数（洋式）": null,
        "女性トイレ総数": 2,
        "女性トイレ数（和式）": 1.0,
        "女性トイレ数（洋式）": 1.0,
        "男女共用トイレ総数": 1,
        "男女共用トイレ数（和式）": null,
        "男女共用トイレ数（洋式）": 1.0,
        "多機能トイレ数": 1.0,
        "車椅子使用者用トイレ有無": "有",
        "乳幼児用設備設置トイレ有無": "有",
        "オストメイト設置トイレ有無": "有",
        "利用開始時間": null,
        "利用終了時間": null,
        "利用可能時間特記事項": null,
        "画像": null,
        "画像_ライセンス": null,
        "備考": null
      }
    },
    {
      "type": "Feature",
      "geometry": {
        "type": "Point",
        "coordinates": [
          131.229707,
          33.966741
        ]
      },
      "properties": {
        "市区町村コード": 352021,
        "NO": 12,
        "都道府県名": "山口県",
        "市区町村名": "宇部市",
        "name": "居能街区公園",
        "名称_カナ": "イノウガイクコウエン",
        "名称_英語": null,
        "address": "山口県宇部市居能町二丁目",
        "方書": null,
        "設置位置": "公園の北西側",
        "男性トイレ総数": 2,
        "男性トイレ数（小便器）": 2.0,
        "男性トイレ数（和式）": null,
        "男性トイレ数（洋式）": null,
        "女性トイレ総数": 0,
        "女性トイレ数（和式）": null,
        "女性トイレ数（洋式）": null,
        "男女共用トイレ総数": 1,
        "男女共用トイレ数（和式）": 1.0,
        "男女共用トイレ数（洋式）": null,
        "多機能トイレ数": null,
        "車椅子使用者用トイレ有無": null,
        "乳幼児用設備設置トイレ有無": null,
        "オストメイト設置トイレ有無": null,
        "利用開始時間": null,
        "利用終了時間": null,
        "利用可能時間特記事項": null,
        "画像": null,
        "画像_ライセンス": null,
        "備考": null
      }
    },
    {
      "type": "Feature",
      "geometry": {
        "type": "Point",
        "coordinates": [
          131.228969,
          33.971081
        ]
      },
      "properties": {
        "市区町村コード": 352021,
        "NO": 13,
        "都道府県名": "山口県",
        "市区町村名": "宇部市",
        "name": "藤山南街区公園",
        "名称_カナ": "フジマヤミナミガイクコウエン",
        "名称_英語": null,
        "address": "山口県宇部市居能町三丁目",
        "方書": null,
        "設置位置": "公園の北西側",
        "男性トイレ総数": 2,
        "男性トイレ数（小便器）": 2.0,
        "男性トイレ数（和式）": null,
        "男性トイレ数（洋式）": null,
        "女性トイレ総数": 0,
        "女性トイレ数（和式）": null,
        "女性トイレ数（洋式）": null,
        "男女共用トイレ総数": 1,
        "男女共用トイレ数（和式）": 1.0,
        "男女共用トイレ数（洋式）": null,
        "多機能トイレ数": null,
        "車椅子使用者用トイレ有無": null,
        "乳幼児用設備設置トイレ有無": null,
        "オストメイト設置トイレ有無": null,
        "利用開始時間": null,
        "利用終了時間": null,
        "利用可能時間特記事項": null,
        "画像": null,
        "画像_ライセンス": null,
        "備考": null
      }
    },
    {
      "type": "Feature",
      "geometry": {
        "type": "Point",
        "coordinates": [
          131.223573,
          33.979679
        ]
      },
      "properties": {
        "市区町村コード": 352021,
        "NO": 14,
        "都道府県名": "山口県",
        "市区町村名": "宇部市",
        "name": "岩鼻西街区公園",
        "名称_カナ": "イワハナニシガイクコウエン",
        "名称_英語": null,
        "address": "山口県宇部市岩鼻町",
        "方書": null,
        "設置位置": "公園の西側",
        "男性トイレ総数": 1,
        "男性トイレ数（小便器）": 1.0,
        "男性トイレ数（和式）": null,
        "男性トイレ数（洋式）": null,
        "女性トイレ総数": 0,
        "女性トイレ数（和式）": null,
        "女性トイレ数（洋式）": null,
        "男女共用トイレ総数": 1,
        "男女共用トイレ数（和式）": null,
        "男女共用トイレ数（洋式）": 1.0,
        "多機能トイレ数": 1.0,
        "車椅子使用者用トイレ有無": "有",
        "乳幼児用設備設置トイレ有無": "有",
        "オストメイト設置トイレ有無": null,
        "利用開始時間": null,
        "利用終了時間": null,
        "利用可能時間特記事項": null,
        "画像": null,
        "画像_ライセンス": null,
        "備考": null
      }
    },
    {
      "type": "Feature",
      "geometry": {
        "type": "Point",
        "coordinates": [
          131.224563,
          33.981347
        ]
      },
      "properties": {
        "市区町村コード": 352021,
        "NO": 15,
        "都道府県名": "山口県",
        "市区町村名": "宇部市",
        "name": "岩鼻公園２",
        "名称_カナ": "イワハナコウエン２",
        "名称_英語": null,
        "address": "山口県宇部市松崎町",
        "方書": null,
        "設置位置": "南側の入口から坂を登った展望台の北側",
        "男性トイレ総数": 0,
        "男性トイレ数（小便器）": null,
        "男性トイレ数（和式）": null,
        "男性トイレ数（洋式）": null,
        "女性トイレ総数": 0,
        "女性トイレ数（和式）": null,
        "女性トイレ数（洋式）": null,
        "男女共用トイレ総数": 1,
        "男女共用トイレ数（和式）": null,
        "男女共用トイレ数（洋式）": 1.0,
        "多機能トイレ数": null,
        "車椅子使用者用トイレ有無": null,
        "乳幼児用設備設置トイレ有無": null,
        "オストメイト設置トイレ有無": null,
        "利用開始時間": null,
        "利用終了時間": null,
        "利用可能時間特記事項": null,
        "画像": null,
        "画像_ライセンス": null,
        "備考": null
      }
    },
    {
      "type": "Feature",
      "geometry": {
        "type": "Point",
        "coordinates": [
          131.226365,
          33.979742
        ]
      },
      "properties": {
        "市区町村コード": 352021,
        "NO": 16,
        "都道府県名": "山口県",
        "市区町村名": "宇部市",
        "name": "岩鼻公園１",
        "名称_カナ": "イワハナコウエン１",
        "名称_英語": null,
        "address": "山口県宇部市西平原一丁目",
        "方書": null,
        "設置位置": "南側の入口付近の遊具のある公園の西側",
        "男性トイレ総数": 1,
        "男性トイレ数（小便器）": 1.0,
        "男性トイレ数（和式）": null,
        "男性トイレ数（洋式）": null,
        "女性トイレ総数": 0,
        "女性トイレ数（和式）": null,
        "女性トイレ数（洋式）": null,
        "男女共用トイレ総数": 0,
        "男女共用トイレ数（和式）": null,
        "男女共用トイレ数（洋式）": null,
        "多機能トイレ数": 1.0,
        "車椅子使用者用トイレ有無": "有",
        "乳幼児用設備設置トイレ有無": "有",
        "オストメイト設置トイレ有無": null,
        "利用開始時間": null,
        "利用終了時間": null,
        "利用可能時間特記事項": null,
        "画像": null,
        "画像_ライセンス": null,
        "備考": null
      }
    },
    {
      "type": "Feature",
      "geometry": {
        "type": "Point",
        "coordinates": [
          131.236677,
          33.958154
        ]
      },
      "properties": {
        "市区町村コード": 352021,
        "NO": 17,
        "都道府県名": "山口県",
        "市区町村名": "宇部市",
        "name": "松濤街区公園２",
        "名称_カナ": "ショウトウガイクコウエン２",
        "名称_英語": null,
        "address": "山口県宇部市西本町二丁目",
        "方書": null,
        "設置位置": "国道から北へ２つ目の公園の南側",
        "男性トイレ総数": 1,
        "男性トイレ数（小便器）": 1.0,
        "男性トイレ数（和式）": null,
        "男性トイレ数（洋式）": null,
        "女性トイレ総数": 0,
        "女性トイレ数（和式）": null,
        "女性トイレ数（洋式）": null,
        "男女共用トイレ総数": 1,
        "男女共用トイレ数（和式）": null,
        "男女共用トイレ数（洋式）": 1.0,
        "多機能トイレ数": 1.0,
        "車椅子使用者用トイレ有無": "有",
        "乳幼児用設備設置トイレ有無": null,
        "オストメイト設置トイレ有無": null,
        "利用開始時間": null,
        "利用終了時間": null,
        "利用可能時間特記事項": null,
        "画像": null,
        "画像_ライセンス": null,
        "備考": null
      }
    },
    {
      "type": "Feature",
      "geometry": {
        "type": "Point",
        "coordinates": [
          131.237474,
          33.959128
        ]
      },
      "properties": {
        "市区町村コード": 352021,
        "NO": 18,
        "都道府県名": "山口県",
        "市区町村名": "宇部市",
        "name": "松濤街区公園１",
        "名称_カナ": "ショウトウガイクコウエン１",
        "名称_英語": null,
        "address": "山口県宇部市西本町二丁目",
        "方書": null,
        "設置位置": "国道から北へ３つ目の公園の東側",
        "男性トイレ総数": 1,
        "男性トイレ数（小便器）": 1.0,
        "男性トイレ数（和式）": null,
        "男性トイレ数（洋式）": null,
        "女性トイレ総数": 0,
        "女性トイレ数（和式）": null,
        "女性トイレ数（洋式）": null,
        "男女共用トイレ総数": 1,
        "男女共用トイレ数（和式）": 1.0,
        "男女共用トイレ数（洋式）": null,
        "多機能トイレ数": null,
        "車椅子使用者用トイレ有無": null,
        "乳幼児用設備設置トイレ有無": null,
        "オストメイト設置トイレ有無": null,
        "利用開始時間": null,
        "利用終了時間": null,
        "利用可能時間特記事項": null,
        "画像": null,
        "画像_ライセンス": null,
        "備考": null
      }
    },
    {
      "type": "Feature",
      "geometry": {
        "type": "Point",
        "coordinates": [
          131.235922,
          33.962438
        ]
      },
      "properties": {
        "市区町村コード": 352021,
        "NO": 19,
        "都道府県名": "山口県",
        "市区町村名": "宇部市",
        "name": "鵜の島街区公園",
        "名称_カナ": "ウノシマガイクコウエン",
        "名称_英語": null,
        "address": "山口県宇部市南浜町一丁目",
        "方書": null,
        "設置位置": "北東側の入口付近",
        "男性トイレ総数": 1,
        "男性トイレ数（小便器）": 1.0,
        "男性トイレ数（和式）": null,
        "男性トイレ数（洋式）": null,
        "女性トイレ総数": 1,
        "女性トイレ数（和式）": null,
        "女性トイレ数（洋式）": 1.0,
        "男女共用トイレ総数": 1,
        "男女共用トイレ数（和式）": null,
        "男女共用トイレ数（洋式）": 1.0,
        "多機能トイレ数": 1.0,
        "車椅子使用者用トイレ有無": "有",
        "乳幼児用設備設置トイレ有無": "有",
        "オストメイト設置トイレ有無": null,
        "利用開始時間": null,
        "利用終了時間": null,
        "利用可能時間特記事項": null,
        "画像": null,
        "画像_ライセンス": null,
        "備考": null
      }
    },
    {
      "type": "Feature",
      "geometry": {
        "type": "Point",
        "coordinates": [
          131.23856,
          33.960558
        ]
      },
      "properties": {
        "市区町村コード": 352021,
        "NO": 20,
        "都道府県名": "山口県",
        "市区町村名": "宇部市",
        "name": "上町街区公園",
        "名称_カナ": "ウエマチガイクコウエン",
        "名称_英語": null,
        "address": "山口県宇部市上町二丁目",
        "方書": null,
        "設置位置": "公園の北東側",
        "男性トイレ総数": 0,
        "男性トイレ数（小便器）": null,
        "男性トイレ数（和式）": null,
        "男性トイレ数（洋式）": null,
        "女性トイレ総数": 0,
        "女性トイレ数（和式）": null,
        "女性トイレ数（洋式）": null,
        "男女共用トイレ総数": 1,
        "男女共用トイレ数（和式）": 1.0,
        "男女共用トイレ数（洋式）": null,
        "多機能トイレ数": null,
        "車椅子使用者用トイレ有無": null,
        "乳幼児用設備設置トイレ有無": null,
        "オストメイト設置トイレ有無": null,
        "利用開始時間": null,
        "利用終了時間": null,
        "利用可能時間特記事項": null,
        "画像": null,
        "画像_ライセンス": null,
        "備考": null
      }
    },
    {
      "type": "Feature",
      "geometry": {
        "type": "Point",
        "coordinates": [
          131.254465,
          33.977866
        ]
      },
      "properties": {
        "市区町村コード": 352021,
        "NO": 21,
        "都道府県名": "山口県",
        "市区町村名": "宇部市",
        "name": "小羽山3号街区公園",
        "名称_カナ": "オバヤマ３ゴウガイクコウエン",
        "名称_英語": null,
        "address": "山口県宇部市北小羽山町一丁目",
        "方書": null,
        "設置位置": "東側の入口付近",
        "男性トイレ総数": 2,
        "男性トイレ数（小便器）": 2.0,
        "男性トイレ数（和式）": null,
        "男性トイレ数（洋式）": null,
        "女性トイレ総数": 0,
        "女性トイレ数（和式）": null,
        "女性トイレ数（洋式）": null,
        "男女共用トイレ総数": 1,
        "男女共用トイレ数（和式）": 1.0,
        "男女共用トイレ数（洋式）": null,
        "多機能トイレ数": null,
        "車椅子使用者用トイレ有無": null,
        "乳幼児用設備設置トイレ有無": null,
        "オストメイト設置トイレ有無": null,
        "利用開始時間": null,
        "利用終了時間": null,
        "利用可能時間特記事項": null,
        "画像": null,
        "画像_ライセンス": null,
        "備考": null
      }
    },
    {
      "type": "Feature",
      "geometry": {
        "type": "Point",
        "coordinates": [
          131.255028,
          33.979014
        ]
      },
      "properties": {
        "市区町村コード": 352021,
        "NO": 22,
        "都道府県名": "山口県",
        "市区町村名": "宇部市",
        "name": "北小羽山街区公園",
        "名称_カナ": "キタオバヤマガイクコウエン",
        "名称_英語": null,
        "address": "山口県宇部市北小羽山町三丁目",
        "方書": null,
        "設置位置": "公園の南西側",
        "男性トイレ総数": 0,
        "男性トイレ数（小便器）": null,
        "男性トイレ数（和式）": null,
        "男性トイレ数（洋式）": null,
        "女性トイレ総数": 0,
        "女性トイレ数（和式）": null,
        "女性トイレ数（洋式）": null,
        "男女共用トイレ総数": 1,
        "男女共用トイレ数（和式）": 1.0,
        "男女共用トイレ数（洋式）": null,
        "多機能トイレ数": null,
        "車椅子使用者用トイレ有無": null,
        "乳幼児用設備設置トイレ有無": null,
        "オストメイト設置トイレ有無": null,
        "利用開始時間": null,
        "利用終了時間": null,
        "利用可能時間特記事項": null,
        "画像": null,
        "画像_ライセンス": null,
        "備考": null
      }
    },
    {
      "type": "Feature",
      "geometry": {
        "type": "Point",
        "coordinates": [
          131.241857,
          33.954168
        ]
      },
      "properties": {
        "市区町村コード": 352021,
        "NO": 23,
        "都道府県名": "山口県",
        "市区町村名": "宇部市",
        "name": "中央街区公園",
        "名称_カナ": "チュウオウガイクコウエン",
        "名称_英語": null,
        "address": "山口県宇部市中央町二丁目",
        "方書": null,
        "設置位置": "公園内にある建物（銀天エコプラザ）の西側（屋外）",
        "男性トイレ総数": 5,
        "男性トイレ数（小便器）": 3.0,
        "男性トイレ数（和式）": null,
        "男性トイレ数（洋式）": 2.0,
        "女性トイレ総数": 3,
        "女性トイレ数（和式）": null,
        "女性トイレ数（洋式）": 3.0,
        "男女共用トイレ総数": 1,
        "男女共用トイレ数（和式）": null,
        "男女共用トイレ数（洋式）": 1.0,
        "多機能トイレ数": 1.0,
        "車椅子使用者用トイレ有無": "有",
        "乳幼児用設備設置トイレ有無": "有",
        "オストメイト設置トイレ有無": null,
        "利用開始時間": null,
        "利用終了時間": null,
        "利用可能時間特記事項": null,
        "画像": null,
        "画像_ライセンス": null,
        "備考": null
      }
    },
    {
      "type": "Feature",
      "geometry": {
        "type": "Point",
        "coordinates": [
          131.245242,
          33.962715
        ]
      },
      "properties": {
        "市区町村コード": 352021,
        "NO": 24,
        "都道府県名": "山口県",
        "市区町村名": "宇部市",
        "name": "黄幡街区公園",
        "名称_カナ": "オウバンガイクコウエン",
        "名称_英語": null,
        "address": "山口県宇部市下条一丁目",
        "方書": null,
        "設置位置": "公園の南東側、山大病院通り沿い",
        "男性トイレ総数": 1,
        "男性トイレ数（小便器）": 1.0,
        "男性トイレ数（和式）": null,
        "男性トイレ数（洋式）": null,
        "女性トイレ総数": 0,
        "女性トイレ数（和式）": null,
        "女性トイレ数（洋式）": null,
        "男女共用トイレ総数": 1,
        "男女共用トイレ数（和式）": null,
        "男女共用トイレ数（洋式）": 1.0,
        "多機能トイレ数": 1.0,
        "車椅子使用者用トイレ有無": "有",
        "乳幼児用設備設置トイレ有無": null,
        "オストメイト設置トイレ有無": null,
        "利用開始時間": null,
        "利用終了時間": null,
        "利用可能時間特記事項": null,
        "画像": null,
        "画像_ライセンス": null,
        "備考": null
      }
    },
    {
      "type": "Feature",
      "geometry": {
        "type": "Point",
        "coordinates": [
          131.244349,
          33.950139
        ]
      },
      "properties": {
        "市区町村コード": 352021,
        "NO": 25,
        "都道府県名": "山口県",
        "市区町村名": "宇部市",
        "name": "松浜街区公園",
        "名称_カナ": "マツハマガイクコウエン",
        "名称_英語": null,
        "address": "山口県宇部市新町",
        "方書": null,
        "設置位置": "東側の入口付近",
        "男性トイレ総数": 1,
        "男性トイレ数（小便器）": 1.0,
        "男性トイレ数（和式）": null,
        "男性トイレ数（洋式）": null,
        "女性トイレ総数": 1,
        "女性トイレ数（和式）": null,
        "女性トイレ数（洋式）": 1.0,
        "男女共用トイレ総数": 1,
        "男女共用トイレ数（和式）": null,
        "男女共用トイレ数（洋式）": 1.0,
        "多機能トイレ数": 1.0,
        "車椅子使用者用トイレ有無": "有",
        "乳幼児用設備設置トイレ有無": "有",
        "オストメイト設置トイレ有無": null,
        "利用開始時間": null,
        "利用終了時間": null,
        "利用可能時間特記事項": null,
        "画像": null,
        "画像_ライセンス": null,
        "備考": null
      }
    },
    {
      "type": "Feature",
      "geometry": {
        "type": "Point",
        "coordinates": [
          131.245989,
          33.957611
        ]
      },
      "properties": {
        "市区町村コード": 352021,
        "NO": 26,
        "都道府県名": "山口県",
        "市区町村名": "宇部市",
        "name": "渡辺翁記念公園",
        "名称_カナ": "ワタナベオウキネンコウエン",
        "名称_英語": null,
        "address": "山口県宇部市朝日町",
        "方書": null,
        "設置位置": "公園の東側、小串通り沿い",
        "男性トイレ総数": 6,
        "男性トイレ数（小便器）": 3.0,
        "男性トイレ数（和式）": 1.0,
        "男性トイレ数（洋式）": 2.0,
        "女性トイレ総数": 5,
        "女性トイレ数（和式）": 3.0,
        "女性トイレ数（洋式）": 2.0,
        "男女共用トイレ総数": 0,
        "男女共用トイレ数（和式）": null,
        "男女共用トイレ数（洋式）": null,
        "多機能トイレ数": 2.0,
        "車椅子使用者用トイレ有無": "有",
        "乳幼児用設備設置トイレ有無": "無",
        "オストメイト設置トイレ有無": null,
        "利用開始時間": null,
        "利用終了時間": null,
        "利用可能時間特記事項": null,
        "画像": null,
        "画像_ライセンス": null,
        "備考": null
      }
    },
    {
      "type": "Feature",
      "geometry": {
        "type": "Point",
        "coordinates": [
          131.257524,
          33.962604
        ]
      },
      "properties": {
        "市区町村コード": 352021,
        "NO": 27,
        "都道府県名": "山口県",
        "市区町村名": "宇部市",
        "name": "宮地街区公園",
        "名称_カナ": "ミヤジガイクコウエン",
        "名称_英語": null,
        "address": "山口県宇部市宮地町",
        "方書": null,
        "設置位置": "東側の入口付近",
        "男性トイレ総数": 1,
        "男性トイレ数（小便器）": 1.0,
        "男性トイレ数（和式）": null,
        "男性トイレ数（洋式）": null,
        "女性トイレ総数": 1,
        "女性トイレ数（和式）": null,
        "女性トイレ数（洋式）": 1.0,
        "男女共用トイレ総数": 1,
        "男女共用トイレ数（和式）": null,
        "男女共用トイレ数（洋式）": 1.0,
        "多機能トイレ数": 1.0,
        "車椅子使用者用トイレ有無": "有",
        "乳幼児用設備設置トイレ有無": "有",
        "オストメイト設置トイレ有無": null,
        "利用開始時間": null,
        "利用終了時間": null,
        "利用可能時間特記事項": null,
        "画像": null,
        "画像_ライセンス": null,
        "備考": null
      }
    },
    {
      "type": "Feature",
      "geometry": {
        "type": "Point",
        "coordinates": [
          131.260924,
          33.962252
        ]
      },
      "properties": {
        "市区町村コード": 352021,
        "NO": 28,
        "都道府県名": "山口県",
        "市区町村名": "宇部市",
        "name": "沼街区公園",
        "名称_カナ": "ヌマガイクコウエン",
        "名称_英語": null,
        "address": "山口県宇部市中村三丁目",
        "方書": null,
        "設置位置": "西側の入口付近",
        "男性トイレ総数": 1,
        "男性トイレ数（小便器）": 1.0,
        "男性トイレ数（和式）": null,
        "男性トイレ数（洋式）": null,
        "女性トイレ総数": 0,
        "女性トイレ数（和式）": null,
        "女性トイレ数（洋式）": null,
        "男女共用トイレ総数": 1,
        "男女共用トイレ数（和式）": null,
        "男女共用トイレ数（洋式）": 1.0,
        "多機能トイレ数": 1.0,
        "車椅子使用者用トイレ有無": "有",
        "乳幼児用設備設置トイレ有無": "有",
        "オストメイト設置トイレ有無": null,
        "利用開始時間": null,
        "利用終了時間": null,
        "利用可能時間特記事項": null,
        "画像": null,
        "画像_ライセンス": null,
        "備考": null
      }
    },
    {
      "type": "Feature",
      "geometry": {
        "type": "Point",
        "coordinates": [
          131.263954,
          33.95549
        ]
      },
      "properties": {
        "市区町村コード": 352021,
        "NO": 29,
        "都道府県名": "山口県",
        "市区町村名": "宇部市",
        "name": "梶返街区公園",
        "名称_カナ": "カジガエシガイクコウエン",
        "名称_英語": null,
        "address": "山口県宇部市西梶返一丁目",
        "方書": null,
        "設置位置": "南東側の入口付近（梶返天満宮境内）",
        "男性トイレ総数": 1,
        "男性トイレ数（小便器）": 1.0,
        "男性トイレ数（和式）": null,
        "男性トイレ数（洋式）": null,
        "女性トイレ総数": 0,
        "女性トイレ数（和式）": null,
        "女性トイレ数（洋式）": null,
        "男女共用トイレ総数": 1,
        "男女共用トイレ数（和式）": null,
        "男女共用トイレ数（洋式）": 1.0,
        "多機能トイレ数": 1.0,
        "車椅子使用者用トイレ有無": "有",
        "乳幼児用設備設置トイレ有無": "有",
        "オストメイト設置トイレ有無": null,
        "利用開始時間": null,
        "利用終了時間": null,
        "利用可能時間特記事項": null,
        "画像": null,
        "画像_ライセンス": null,
        "備考": null
      }
    },
    {
      "type": "Feature",
      "geometry": {
        "type": "Point",
        "coordinates": [
          131.255509,
          33.952739
        ]
      },
      "properties": {
        "市区町村コード": 352021,
        "NO": 30,
        "都道府県名": "山口県",
        "市区町村名": "宇部市",
        "name": "神原公園",
        "名称_カナ": "カミハラコウエン",
        "名称_英語": null,
        "address": "山口県宇部市琴芝町二丁目",
        "方書": null,
        "設置位置": "東側の入口付近",
        "男性トイレ総数": 1,
        "男性トイレ数（小便器）": 1.0,
        "男性トイレ数（和式）": null,
        "男性トイレ数（洋式）": null,
        "女性トイレ総数": 1,
        "女性トイレ数（和式）": null,
        "女性トイレ数（洋式）": 1.0,
        "男女共用トイレ総数": 1,
        "男女共用トイレ数（和式）": null,
        "男女共用トイレ数（洋式）": 1.0,
        "多機能トイレ数": 1.0,
        "車椅子使用者用トイレ有無": "有",
        "乳幼児用設備設置トイレ有無": "有",
        "オストメイト設置トイレ有無": null,
        "利用開始時間": null,
        "利用終了時間": null,
        "利用可能時間特記事項": null,
        "画像": null,
        "画像_ライセンス": null,
        "備考": null
      }
    },
    {
      "type": "Feature",
      "geometry": {
        "type": "Point",
        "coordinates": [
          131.253336,
          33.952219
        ]
      },
      "properties": {
        "市区町村コード": 352021,
        "NO": 31,
        "都道府県名": "山口県",
        "市区町村名": "宇部市",
        "name": "南神原公園",
        "名称_カナ": "ミナミカミハラコウエン",
        "名称_英語": null,
        "address": "山口県宇部市琴芝町二丁目",
        "方書": null,
        "設置位置": "西側入口付近",
        "男性トイレ総数": 1,
        "男性トイレ数（小便器）": 1.0,
        "男性トイレ数（和式）": null,
        "男性トイレ数（洋式）": null,
        "女性トイレ総数": 0,
        "女性トイレ数（和式）": null,
        "女性トイレ数（洋式）": null,
        "男女共用トイレ総数": 1,
        "男女共用トイレ数（和式）": null,
        "男女共用トイレ数（洋式）": 1.0,
        "多機能トイレ数": 1.0,
        "車椅子使用者用トイレ有無": "有",
        "乳幼児用設備設置トイレ有無": "有",
        "オストメイト設置トイレ有無": null,
        "利用開始時間": null,
        "利用終了時間": null,
        "利用可能時間特記事項": null,
        "画像": null,
        "画像_ライセンス": null,
        "備考": null
      }
    },
    {
      "type": "Feature",
      "geometry": {
        "type": "Point",
        "coordinates": [
          131.251819,
          33.947118
        ]
      },
      "properties": {
        "市区町村コード": 352021,
        "NO": 32,
        "都道府県名": "山口県",
        "市区町村名": "宇部市",
        "name": "宮大路南街区公園",
        "名称_カナ": "ミヤオオジミナミガイクコウエン",
        "名称_英語": null,
        "address": "山口県宇部市錦町",
        "方書": null,
        "設置位置": "東側の入口付近",
        "男性トイレ総数": 1,
        "男性トイレ数（小便器）": null,
        "男性トイレ数（和式）": null,
        "男性トイレ数（洋式）": 1.0,
        "女性トイレ総数": 2,
        "女性トイレ数（和式）": null,
        "女性トイレ数（洋式）": 2.0,
        "男女共用トイレ総数": 1,
        "男女共用トイレ数（和式）": null,
        "男女共用トイレ数（洋式）": 1.0,
        "多機能トイレ数": 1.0,
        "車椅子使用者用トイレ有無": "有",
        "乳幼児用設備設置トイレ有無": "有",
        "オストメイト設置トイレ有無": null,
        "利用開始時間": null,
        "利用終了時間": null,
        "利用可能時間特記事項": null,
        "画像": null,
        "画像_ライセンス": null,
        "備考": null
      }
    },
    {
      "type": "Feature",
      "geometry": {
        "type": "Point",
        "coordinates": [
          131.249084,
          33.950601
        ]
      },
      "properties": {
        "市区町村コード": 352021,
        "NO": 33,
        "都道府県名": "山口県",
        "市区町村名": "宇部市",
        "name": "琴芝街区公園",
        "名称_カナ": "コトシバガイクコウエン",
        "名称_英語": null,
        "address": "山口県宇部市常盤町一丁目",
        "方書": null,
        "設置位置": "南東側の入口付近",
        "男性トイレ総数": 3,
        "男性トイレ数（小便器）": 3.0,
        "男性トイレ数（和式）": null,
        "男性トイレ数（洋式）": null,
        "女性トイレ総数": 0,
        "女性トイレ数（和式）": null,
        "女性トイレ数（洋式）": null,
        "男女共用トイレ総数": 2,
        "男女共用トイレ数（和式）": 2.0,
        "男女共用トイレ数（洋式）": null,
        "多機能トイレ数": null,
        "車椅子使用者用トイレ有無": null,
        "乳幼児用設備設置トイレ有無": null,
        "オストメイト設置トイレ有無": null,
        "利用開始時間": null,
        "利用終了時間": null,
        "利用可能時間特記事項": null,
        "画像": null,
        "画像_ライセンス": null,
        "備考": null
      }
    },
    {
      "type": "Feature",
      "geometry": {
        "type": "Point",
        "coordinates": [
          131.253014,
          33.947653
        ]
      },
      "properties": {
        "市区町村コード": 352021,
        "NO": 34,
        "都道府県名": "山口県",
        "市区町村名": "宇部市",
        "name": "常藤街区公園",
        "名称_カナ": "ツネフジガイクコウエン",
        "名称_英語": null,
        "address": "山口県宇部市松山町一丁目",
        "方書": null,
        "設置位置": "公園の中央付近",
        "男性トイレ総数": 0,
        "男性トイレ数（小便器）": null,
        "男性トイレ数（和式）": null,
        "男性トイレ数（洋式）": null,
        "女性トイレ総数": 0,
        "女性トイレ数（和式）": null,
        "女性トイレ数（洋式）": null,
        "男女共用トイレ総数": 1,
        "男女共用トイレ数（和式）": null,
        "男女共用トイレ数（洋式）": 1.0,
        "多機能トイレ数": 1.0,
        "車椅子使用者用トイレ有無": "有",
        "乳幼児用設備設置トイレ有無": "有",
        "オストメイト設置トイレ有無": null,
        "利用開始時間": null,
        "利用終了時間": null,
        "利用可能時間特記事項": null,
        "画像": null,
        "画像_ライセンス": null,
        "備考": null
      }
    },
    {
      "type": "Feature",
      "geometry": {
        "type": "Point",
        "coordinates": [
          131.250311,
          33.954324
        ]
      },
      "properties": {
        "市区町村コード": 352021,
        "NO": 35,
        "都道府県名": "山口県",
        "市区町村名": "宇部市",
        "name": "松月堀街区公園",
        "名称_カナ": "ショウゲツボリガイクコウエン",
        "名称_英語": null,
        "address": "山口県宇部市琴芝町一丁目",
        "方書": null,
        "設置位置": "南西側の入口付近",
        "男性トイレ総数": 2,
        "男性トイレ数（小便器）": 2.0,
        "男性トイレ数（和式）": null,
        "男性トイレ数（洋式）": null,
        "女性トイレ総数": 0,
        "女性トイレ数（和式）": null,
        "女性トイレ数（洋式）": null,
        "男女共用トイレ総数": 1,
        "男女共用トイレ数（和式）": 1.0,
        "男女共用トイレ数（洋式）": null,
        "多機能トイレ数": null,
        "車椅子使用者用トイレ有無": null,
        "乳幼児用設備設置トイレ有無": null,
        "オストメイト設置トイレ有無": null,
        "利用開始時間": null,
        "利用終了時間": null,
        "利用可能時間特記事項": null,
        "画像": null,
        "画像_ライセンス": null,
        "備考": null
      }
    },
    {
      "type": "Feature",
      "geometry": {
        "type": "Point",
        "coordinates": [
          131.265079,
          33.938365
        ]
      },
      "properties": {
        "市区町村コード": 352021,
        "NO": 36,
        "都道府県名": "山口県",
        "市区町村名": "宇部市",
        "name": "笹山街区公園",
        "名称_カナ": "ササヤマガイクコウエン",
        "名称_英語": null,
        "address": "山口県宇部市笹山町二丁目",
        "方書": null,
        "設置位置": "公園の南東側",
        "男性トイレ総数": 1,
        "男性トイレ数（小便器）": 1.0,
        "男性トイレ数（和式）": null,
        "男性トイレ数（洋式）": null,
        "女性トイレ総数": 0,
        "女性トイレ数（和式）": null,
        "女性トイレ数（洋式）": null,
        "男女共用トイレ総数": 1,
        "男女共用トイレ数（和式）": null,
        "男女共用トイレ数（洋式）": 1.0,
        "多機能トイレ数": 1.0,
        "車椅子使用者用トイレ有無": "有",
        "乳幼児用設備設置トイレ有無": "有",
        "オストメイト設置トイレ有無": null,
        "利用開始時間": null,
        "利用終了時間": null,
        "利用可能時間特記事項": null,
        "画像": null,
        "画像_ライセンス": null,
        "備考": null
      }
    },
    {
      "type": "Feature",
      "geometry": {
        "type": "Point",
        "coordinates": [
          131.275364,
          33.937107
        ]
      },
      "properties": {
        "市区町村コード": 352021,
        "NO": 37,
        "都道府県名": "山口県",
        "市区町村名": "宇部市",
        "name": "草江街区公園",
        "名称_カナ": "クサエガイクコウエン",
        "名称_英語": null,
        "address": "山口県宇部市草江二丁目",
        "方書": null,
        "設置位置": "公園の北西側",
        "男性トイレ総数": 1,
        "男性トイレ数（小便器）": 1.0,
        "男性トイレ数（和式）": null,
        "男性トイレ数（洋式）": null,
        "女性トイレ総数": 0,
        "女性トイレ数（和式）": null,
        "女性トイレ数（洋式）": null,
        "男女共用トイレ総数": 1,
        "男女共用トイレ数（和式）": null,
        "男女共用トイレ数（洋式）": 1.0,
        "多機能トイレ数": 1.0,
        "車椅子使用者用トイレ有無": "有",
        "乳幼児用設備設置トイレ有無": "有",
        "オストメイト設置トイレ有無": null,
        "利用開始時間": null,
        "利用終了時間": null,
        "利用可能時間特記事項": null,
        "画像": null,
        "画像_ライセンス": null,
        "備考": null
      }
    },
    {
      "type": "Feature",
      "geometry": {
        "type": "Point",
        "coordinates": [
          131.260826,
          33.930125
        ]
      },
      "properties": {
        "市区町村コード": 352021,
        "NO": 39,
        "都道府県名": "山口県",
        "市区町村名": "宇部市",
        "name": "明神街区公園",
        "名称_カナ": "ミョウジンガイクコウエン",
        "名称_英語": null,
        "address": "山口県宇部市明神町一丁目",
        "方書": null,
        "設置位置": "東側の入口付近",
        "男性トイレ総数": 1,
        "男性トイレ数（小便器）": 1.0,
        "男性トイレ数（和式）": null,
        "男性トイレ数（洋式）": null,
        "女性トイレ総数": 0,
        "女性トイレ数（和式）": null,
        "女性トイレ数（洋式）": null,
        "男女共用トイレ総数": 1,
        "男女共用トイレ数（和式）": null,
        "男女共用トイレ数（洋式）": 1.0,
        "多機能トイレ数": 1.0,
        "車椅子使用者用トイレ有無": "有",
        "乳幼児用設備設置トイレ有無": null,
        "オストメイト設置トイレ有無": null,
        "利用開始時間": null,
        "利用終了時間": null,
        "利用可能時間特記事項": null,
        "画像": null,
        "画像_ライセンス": null,
        "備考": null
      }
    },
    {
      "type": "Feature",
      "geometry": {
        "type": "Point",
        "coordinates": [
          131.256037,
          33.935289
        ]
      },
      "properties": {
        "市区町村コード": 352021,
        "NO": 40,
        "都道府県名": "山口県",
        "市区町村名": "宇部市",
        "name": "東見初街区公園",
        "名称_カナ": "ヒガシミゾメガイクコウエン",
        "名称_英語": null,
        "address": "山口県宇部市昭和町四丁目",
        "方書": null,
        "設置位置": "公園の北西側",
        "男性トイレ総数": 1,
        "男性トイレ数（小便器）": 1.0,
        "男性トイレ数（和式）": null,
        "男性トイレ数（洋式）": null,
        "女性トイレ総数": 0,
        "女性トイレ数（和式）": null,
        "女性トイレ数（洋式）": null,
        "男女共用トイレ総数": 1,
        "男女共用トイレ数（和式）": 1.0,
        "男女共用トイレ数（洋式）": null,
        "多機能トイレ数": null,
        "車椅子使用者用トイレ有無": null,
        "乳幼児用設備設置トイレ有無": null,
        "オストメイト設置トイレ有無": null,
        "利用開始時間": null,
        "利用終了時間": null,
        "利用可能時間特記事項": null,
        "画像": null,
        "画像_ライセンス": null,
        "備考": null
      }
    },
    {
      "type": "Feature",
      "geometry": {
        "type": "Point",
        "coordinates": [
          131.259505,
          33.935659
        ]
      },
      "properties": {
        "市区町村コード": 352021,
        "NO": 41,
        "都道府県名": "山口県",
        "市区町村名": "宇部市",
        "name": "岬街区公園",
        "名称_カナ": "ミサキガイクコウエン",
        "名称_英語": null,
        "address": "山口県宇部市松山町五丁目",
        "方書": null,
        "設置位置": "公園の南東側",
        "男性トイレ総数": 1,
        "男性トイレ数（小便器）": 1.0,
        "男性トイレ数（和式）": null,
        "男性トイレ数（洋式）": null,
        "女性トイレ総数": 0,
        "女性トイレ数（和式）": null,
        "女性トイレ数（洋式）": null,
        "男女共用トイレ総数": 1,
        "男女共用トイレ数（和式）": null,
        "男女共用トイレ数（洋式）": 1.0,
        "多機能トイレ数": 1.0,
        "車椅子使用者用トイレ有無": "有",
        "乳幼児用設備設置トイレ有無": "有",
        "オストメイト設置トイレ有無": null,
        "利用開始時間": null,
        "利用終了時間": null,
        "利用可能時間特記事項": null,
        "画像": null,
        "画像_ライセンス": null,
        "備考": null
      }
    },
    {
      "type": "Feature",
      "geometry": {
        "type": "Point",
        "coordinates": [
          131.265574,
          33.926571
        ]
      },
      "properties": {
        "市区町村コード": 352021,
        "NO": 42,
        "都道府県名": "山口県",
        "市区町村名": "宇部市",
        "name": "八王子街区公園",
        "名称_カナ": "ハチオウジガイクコウエン",
        "名称_英語": null,
        "address": "山口県宇部市八王子町",
        "方書": null,
        "設置位置": "公園の東側",
        "男性トイレ総数": 1,
        "男性トイレ数（小便器）": 1.0,
        "男性トイレ数（和式）": null,
        "男性トイレ数（洋式）": null,
        "女性トイレ総数": 0,
        "女性トイレ数（和式）": null,
        "女性トイレ数（洋式）": null,
        "男女共用トイレ総数": 1,
        "男女共用トイレ数（和式）": 1.0,
        "男女共用トイレ数（洋式）": null,
        "多機能トイレ数": null,
        "車椅子使用者用トイレ有無": null,
        "乳幼児用設備設置トイレ有無": null,
        "オストメイト設置トイレ有無": null,
        "利用開始時間": null,
        "利用終了時間": null,
        "利用可能時間特記事項": null,
        "画像": null,
        "画像_ライセンス": null,
        "備考": null
      }
    },
    {
      "type": "Feature",
      "geometry": {
        "type": "Point",
        "coordinates": [
          131.257974,
          33.938415
        ]
      },
      "properties": {
        "市区町村コード": 352021,
        "NO": 43,
        "都道府県名": "山口県",
        "市区町村名": "宇部市",
        "name": "松山通街区公園",
        "名称_カナ": "マツヤマドオリガイクコウエン",
        "名称_英語": null,
        "address": "山口県宇部市松山町四丁目",
        "方書": null,
        "設置位置": "東側の入口付近",
        "男性トイレ総数": 1,
        "男性トイレ数（小便器）": 1.0,
        "男性トイレ数（和式）": null,
        "男性トイレ数（洋式）": null,
        "女性トイレ総数": 0,
        "女性トイレ数（和式）": null,
        "女性トイレ数（洋式）": null,
        "男女共用トイレ総数": 1,
        "男女共用トイレ数（和式）": null,
        "男女共用トイレ数（洋式）": 1.0,
        "多機能トイレ数": 1.0,
        "車椅子使用者用トイレ有無": "有",
        "乳幼児用設備設置トイレ有無": "有",
        "オストメイト設置トイレ有無": null,
        "利用開始時間": null,
        "利用終了時間": null,
        "利用可能時間特記事項": null,
        "画像": null,
        "画像_ライセンス": null,
        "備考": null
      }
    },
    {
      "type": "Feature",
      "geometry": {
        "type": "Point",
        "coordinates": [
          131.252741,
          33.943653
        ]
      },
      "properties": {
        "市区町村コード": 352021,
        "NO": 44,
        "都道府県名": "山口県",
        "市区町村名": "宇部市",
        "name": "昭和町街区公園",
        "名称_カナ": "ショウワマチガイクコウエン",
        "名称_英語": null,
        "address": "山口県宇部市昭和町一丁目",
        "方書": null,
        "設置位置": "公園の北西側",
        "男性トイレ総数": 2,
        "男性トイレ数（小便器）": 2.0,
        "男性トイレ数（和式）": null,
        "男性トイレ数（洋式）": null,
        "女性トイレ総数": 0,
        "女性トイレ数（和式）": null,
        "女性トイレ数（洋式）": null,
        "男女共用トイレ総数": 1,
        "男女共用トイレ数（和式）": 1.0,
        "男女共用トイレ数（洋式）": null,
        "多機能トイレ数": null,
        "車椅子使用者用トイレ有無": null,
        "乳幼児用設備設置トイレ有無": null,
        "オストメイト設置トイレ有無": null,
        "利用開始時間": null,
        "利用終了時間": null,
        "利用可能時間特記事項": null,
        "画像": null,
        "画像_ライセンス": null,
        "備考": null
      }
    },
    {
      "type": "Feature",
      "geometry": {
        "type": "Point",
        "coordinates": [
          131.275793,
          33.962424
        ]
      },
      "properties": {
        "市区町村コード": 352021,
        "NO": 45,
        "都道府県名": "山口県",
        "市区町村名": "宇部市",
        "name": "開街区公園",
        "名称_カナ": "ヒラキガイクコウエン",
        "名称_英語": null,
        "address": "山口県宇部市開一丁目",
        "方書": null,
        "設置位置": "南側の入口付近",
        "男性トイレ総数": 2,
        "男性トイレ数（小便器）": 2.0,
        "男性トイレ数（和式）": null,
        "男性トイレ数（洋式）": null,
        "女性トイレ総数": 0,
        "女性トイレ数（和式）": null,
        "女性トイレ数（洋式）": null,
        "男女共用トイレ総数": 1,
        "男女共用トイレ数（和式）": 1.0,
        "男女共用トイレ数（洋式）": null,
        "多機能トイレ数": null,
        "車椅子使用者用トイレ有無": null,
        "乳幼児用設備設置トイレ有無": null,
        "オストメイト設置トイレ有無": null,
        "利用開始時間": null,
        "利用終了時間": null,
        "利用可能時間特記事項": null,
        "画像": null,
        "画像_ライセンス": null,
        "備考": null
      }
    },
    {
      "type": "Feature",
      "geometry": {
        "type": "Point",
        "coordinates": [
          131.268208,
          33.970267
        ]
      },
      "properties": {
        "市区町村コード": 352021,
        "NO": 46,
        "都道府県名": "山口県",
        "市区町村名": "宇部市",
        "name": "琴崎街区公園",
        "名称_カナ": "コトザキガイクコウエン",
        "名称_英語": null,
        "address": "山口県宇部市琴崎町",
        "方書": null,
        "設置位置": "南側の入口付近",
        "男性トイレ総数": 3,
        "男性トイレ数（小便器）": 2.0,
        "男性トイレ数（和式）": null,
        "男性トイレ数（洋式）": 1.0,
        "女性トイレ総数": 2,
        "女性トイレ数（和式）": 1.0,
        "女性トイレ数（洋式）": 1.0,
        "男女共用トイレ総数": 0,
        "男女共用トイレ数（和式）": null,
        "男女共用トイレ数（洋式）": null,
        "多機能トイレ数": 2.0,
        "車椅子使用者用トイレ有無": "有",
        "乳幼児用設備設置トイレ有無": "有",
        "オストメイト設置トイレ有無": "有",
        "利用開始時間": null,
        "利用終了時間": null,
        "利用可能時間特記事項": null,
        "画像": null,
        "画像_ライセンス": null,
        "備考": null
      }
    },
    {
      "type": "Feature",
      "geometry": {
        "type": "Point",
        "coordinates": [
          131.266023,
          33.96336
        ]
      },
      "properties": {
        "市区町村コード": 352021,
        "NO": 47,
        "都道府県名": "山口県",
        "市区町村名": "宇部市",
        "name": "寺の前第二街区公園",
        "名称_カナ": "テラノマエダイニガイクコウエン",
        "名称_英語": null,
        "address": "山口県宇部市大小路三丁目",
        "方書": null,
        "設置位置": "南側の入口付近",
        "男性トイレ総数": 0,
        "男性トイレ数（小便器）": null,
        "男性トイレ数（和式）": null,
        "男性トイレ数（洋式）": null,
        "女性トイレ総数": 0,
        "女性トイレ数（和式）": null,
        "女性トイレ数（洋式）": null,
        "男女共用トイレ総数": 1,
        "男女共用トイレ数（和式）": 1.0,
        "男女共用トイレ数（洋式）": null,
        "多機能トイレ数": null,
        "車椅子使用者用トイレ有無": null,
        "乳幼児用設備設置トイレ有無": null,
        "オストメイト設置トイレ有無": null,
        "利用開始時間": null,
        "利用終了時間": null,
        "利用可能時間特記事項": null,
        "画像": null,
        "画像_ライセンス": null,
        "備考": null
      }
    },
    {
      "type": "Feature",
      "geometry": {
        "type": "Point",
        "coordinates": [
          131.277044,
          33.966635
        ]
      },
      "properties": {
        "市区町村コード": 352021,
        "NO": 48,
        "都道府県名": "山口県",
        "市区町村名": "宇部市",
        "name": "風呂ヶ迫第２号街区公園",
        "名称_カナ": "フロガサコダイ２ゴウガイクコウエン",
        "名称_英語": null,
        "address": "山口県宇部市風呂ヶ迫町",
        "方書": null,
        "設置位置": "北側の入口付近",
        "男性トイレ総数": 1,
        "男性トイレ数（小便器）": 1.0,
        "男性トイレ数（和式）": null,
        "男性トイレ数（洋式）": null,
        "女性トイレ総数": 0,
        "女性トイレ数（和式）": null,
        "女性トイレ数（洋式）": null,
        "男女共用トイレ総数": 1,
        "男女共用トイレ数（和式）": 1.0,
        "男女共用トイレ数（洋式）": null,
        "多機能トイレ数": null,
        "車椅子使用者用トイレ有無": null,
        "乳幼児用設備設置トイレ有無": null,
        "オストメイト設置トイレ有無": null,
        "利用開始時間": null,
        "利用終了時間": null,
        "利用可能時間特記事項": null,
        "画像": null,
        "画像_ライセンス": null,
        "備考": null
      }
    },
    {
      "type": "Feature",
      "geometry": {
        "type": "Point",
        "coordinates": [
          131.265471,
          33.968285
        ]
      },
      "properties": {
        "市区町村コード": 352021,
        "NO": 49,
        "都道府県名": "山口県",
        "市区町村名": "宇部市",
        "name": "福原史跡公園",
        "名称_カナ": "フクバラシセキコウエン",
        "名称_英語": null,
        "address": "山口県宇部市中尾一丁目",
        "方書": null,
        "設置位置": "南西側の駐車場横",
        "男性トイレ総数": 1,
        "男性トイレ数（小便器）": 1.0,
        "男性トイレ数（和式）": null,
        "男性トイレ数（洋式）": null,
        "女性トイレ総数": 0,
        "女性トイレ数（和式）": null,
        "女性トイレ数（洋式）": null,
        "男女共用トイレ総数": 2,
        "男女共用トイレ数（和式）": 1.0,
        "男女共用トイレ数（洋式）": 1.0,
        "多機能トイレ数": 1.0,
        "車椅子使用者用トイレ有無": "有",
        "乳幼児用設備設置トイレ有無": "有",
        "オストメイト設置トイレ有無": "有",
        "利用開始時間": null,
        "利用終了時間": null,
        "利用可能時間特記事項": null,
        "画像": null,
        "画像_ライセンス": null,
        "備考": null
      }
    },
    {
      "type": "Feature",
      "geometry": {
        "type": "Point",
        "coordinates": [
          131.27099,
          33.971266
        ]
      },
      "properties": {
        "市区町村コード": 352021,
        "NO": 50,
        "都道府県名": "山口県",
        "市区町村名": "宇部市",
        "name": "琴崎公園",
        "名称_カナ": "コトザキコウエン",
        "名称_英語": null,
        "address": "山口県宇部市大字上宇部",
        "方書": null,
        "設置位置": "琴崎八幡宮の東側にある公園の駐車場横",
        "男性トイレ総数": 3,
        "男性トイレ数（小便器）": 2.0,
        "男性トイレ数（和式）": null,
        "男性トイレ数（洋式）": 1.0,
        "女性トイレ総数": 3,
        "女性トイレ数（和式）": 1.0,
        "女性トイレ数（洋式）": 2.0,
        "男女共用トイレ総数": 1,
        "男女共用トイレ数（和式）": null,
        "男女共用トイレ数（洋式）": 1.0,
        "多機能トイレ数": 1.0,
        "車椅子使用者用トイレ有無": "有",
        "乳幼児用設備設置トイレ有無": "有",
        "オストメイト設置トイレ有無": "有",
        "利用開始時間": null,
        "利用終了時間": null,
        "利用可能時間特記事項": null,
        "画像": null,
        "画像_ライセンス": null,
        "備考": null
      }
    },
    {
      "type": "Feature",
      "geometry": {
        "type": "Point",
        "coordinates": [
          131.297739,
          33.981332
        ]
      },
      "properties": {
        "市区町村コード": 352021,
        "NO": 51,
        "都道府県名": "山口県",
        "市区町村名": "宇部市",
        "name": "片倉公園",
        "名称_カナ": "カタクラコウエン",
        "名称_英語": null,
        "address": "山口県宇部市あすとぴあ五丁目",
        "方書": null,
        "設置位置": "北側の駐車場横",
        "男性トイレ総数": 4,
        "男性トイレ数（小便器）": 3.0,
        "男性トイレ数（和式）": 1.0,
        "男性トイレ数（洋式）": null,
        "女性トイレ総数": 3,
        "女性トイレ数（和式）": 3.0,
        "女性トイレ数（洋式）": null,
        "男女共用トイレ総数": 1,
        "男女共用トイレ数（和式）": null,
        "男女共用トイレ数（洋式）": 1.0,
        "多機能トイレ数": 1.0,
        "車椅子使用者用トイレ有無": "有",
        "乳幼児用設備設置トイレ有無": null,
        "オストメイト設置トイレ有無": null,
        "利用開始時間": null,
        "利用終了時間": null,
        "利用可能時間特記事項": null,
        "画像": null,
        "画像_ライセンス": null,
        "備考": null
      }
    },
    {
      "type": "Feature",
      "geometry": {
        "type": "Point",
        "coordinates": [
          131.29635,
          33.985421
        ]
      },
      "properties": {
        "市区町村コード": 352021,
        "NO": 52,
        "都道府県名": "山口県",
        "市区町村名": "宇部市",
        "name": "請川公園",
        "名称_カナ": "ウケガワコウエン",
        "名称_英語": null,
        "address": "山口県宇部市あすとぴあ三丁目",
        "方書": null,
        "設置位置": "南側中央から入った駐車場横",
        "男性トイレ総数": 4,
        "男性トイレ数（小便器）": 3.0,
        "男性トイレ数（和式）": 1.0,
        "男性トイレ数（洋式）": null,
        "女性トイレ総数": 2,
        "女性トイレ数（和式）": 2.0,
        "女性トイレ数（洋式）": null,
        "男女共用トイレ総数": 1,
        "男女共用トイレ数（和式）": null,
        "男女共用トイレ数（洋式）": 1.0,
        "多機能トイレ数": 1.0,
        "車椅子使用者用トイレ有無": "有",
        "乳幼児用設備設置トイレ有無": null,
        "オストメイト設置トイレ有無": null,
        "利用開始時間": null,
        "利用終了時間": null,
        "利用可能時間特記事項": null,
        "画像": null,
        "画像_ライセンス": null,
        "備考": null
      }
    },
    {
      "type": "Feature",
      "geometry": {
        "type": "Point",
        "coordinates": [
          131.31067,
          33.966609
        ]
      },
      "properties": {
        "市区町村コード": 352021,
        "NO": 53,
        "都道府県名": "山口県",
        "市区町村名": "宇部市",
        "name": "南方公園１",
        "名称_カナ": "ミナミガタコウエン１",
        "名称_英語": null,
        "address": "山口県宇部市大字西岐波",
        "方書": null,
        "設置位置": "南方八幡宮の北東側、遊具のある広場の道路を挟んだ西側",
        "男性トイレ総数": 2,
        "男性トイレ数（小便器）": 2.0,
        "男性トイレ数（和式）": null,
        "男性トイレ数（洋式）": null,
        "女性トイレ総数": 0,
        "女性トイレ数（和式）": null,
        "女性トイレ数（洋式）": null,
        "男女共用トイレ総数": 1,
        "男女共用トイレ数（和式）": null,
        "男女共用トイレ数（洋式）": 1.0,
        "多機能トイレ数": null,
        "車椅子使用者用トイレ有無": null,
        "乳幼児用設備設置トイレ有無": null,
        "オストメイト設置トイレ有無": null,
        "利用開始時間": null,
        "利用終了時間": null,
        "利用可能時間特記事項": null,
        "画像": null,
        "画像_ライセンス": null,
        "備考": null
      }
    },
    {
      "type": "Feature",
      "geometry": {
        "type": "Point",
        "coordinates": [
          131.310662,
          33.96663
        ]
      },
      "properties": {
        "市区町村コード": 352021,
        "NO": 54,
        "都道府県名": "山口県",
        "市区町村名": "宇部市",
        "name": "南方公園２",
        "名称_カナ": "ミナミガタコウエン２",
        "名称_英語": null,
        "address": "山口県宇部市大字西岐波",
        "方書": null,
        "設置位置": "南方八幡宮の北東側、遊具のある広場の道路を挟んだ西側",
        "男性トイレ総数": 0,
        "男性トイレ数（小便器）": null,
        "男性トイレ数（和式）": null,
        "男性トイレ数（洋式）": null,
        "女性トイレ総数": 0,
        "女性トイレ数（和式）": null,
        "女性トイレ数（洋式）": null,
        "男女共用トイレ総数": 1,
        "男女共用トイレ数（和式）": null,
        "男女共用トイレ数（洋式）": 1.0,
        "多機能トイレ数": null,
        "車椅子使用者用トイレ有無": null,
        "乳幼児用設備設置トイレ有無": null,
        "オストメイト設置トイレ有無": null,
        "利用開始時間": null,
        "利用終了時間": null,
        "利用可能時間特記事項": null,
        "画像": null,
        "画像_ライセンス": null,
        "備考": null
      }
    },
    {
      "type": "Feature",
      "geometry": {
        "type": "Point",
        "coordinates": [
          131.347355,
          33.993665
        ]
      },
      "properties": {
        "市区町村コード": 352021,
        "NO": 55,
        "都道府県名": "山口県",
        "市区町村名": "宇部市",
        "name": "前田街区公園",
        "名称_カナ": "マエダガイクコウエン",
        "名称_英語": null,
        "address": "山口県宇部市大字東岐波",
        "方書": null,
        "設置位置": "公園の北西側",
        "男性トイレ総数": 2,
        "男性トイレ数（小便器）": 2.0,
        "男性トイレ数（和式）": null,
        "男性トイレ数（洋式）": null,
        "女性トイレ総数": 0,
        "女性トイレ数（和式）": null,
        "女性トイレ数（洋式）": null,
        "男女共用トイレ総数": 1,
        "男女共用トイレ数（和式）": 1.0,
        "男女共用トイレ数（洋式）": null,
        "多機能トイレ数": null,
        "車椅子使用者用トイレ有無": null,
        "乳幼児用設備設置トイレ有無": null,
        "オストメイト設置トイレ有無": null,
        "利用開始時間": null,
        "利用終了時間": null,
        "利用可能時間特記事項": null,
        "画像": null,
        "画像_ライセンス": null,
        "備考": null
      }
    },
    {
      "type": "Feature",
      "geometry": {
        "type": "Point",
        "coordinates": [
          131.351787,
          33.971179
        ]
      },
      "properties": {
        "市区町村コード": 352021,
        "NO": 56,
        "都道府県名": "山口県",
        "市区町村名": "宇部市",
        "name": "三神公園",
        "名称_カナ": "サンジンコウエン",
        "名称_英語": null,
        "address": "山口県宇部市大字東岐波",
        "方書": null,
        "設置位置": "西側の鳥居付近",
        "男性トイレ総数": 2,
        "男性トイレ数（小便器）": 1.0,
        "男性トイレ数（和式）": null,
        "男性トイレ数（洋式）": 1.0,
        "女性トイレ総数": 0,
        "女性トイレ数（和式）": null,
        "女性トイレ数（洋式）": null,
        "男女共用トイレ総数": 1,
        "男女共用トイレ数（和式）": null,
        "男女共用トイレ数（洋式）": 1.0,
        "多機能トイレ数": 1.0,
        "車椅子使用者用トイレ有無": "有",
        "乳幼児用設備設置トイレ有無": null,
        "オストメイト設置トイレ有無": null,
        "利用開始時間": null,
        "利用終了時間": null,
        "利用可能時間特記事項": null,
        "画像": null,
        "画像_ライセンス": null,
        "備考": null
      }
    },
    {
      "type": "Feature",
      "geometry": {
        "type": "Point",
        "coordinates": [
          131.235094,
          34.016145
        ]
      },
      "properties": {
        "市区町村コード": 352021,
        "NO": 57,
        "都道府県名": "山口県",
        "市区町村名": "宇部市",
        "name": "棚井下街区公園",
        "名称_カナ": "タナイシモガイクコウエン",
        "名称_英語": null,
        "address": "山口県宇部市大字棚井",
        "方書": null,
        "設置位置": "南側の入口付近",
        "男性トイレ総数": 2,
        "男性トイレ数（小便器）": 2.0,
        "男性トイレ数（和式）": null,
        "男性トイレ数（洋式）": null,
        "女性トイレ総数": 0,
        "女性トイレ数（和式）": null,
        "女性トイレ数（洋式）": null,
        "男女共用トイレ総数": 1,
        "男女共用トイレ数（和式）": 1.0,
        "男女共用トイレ数（洋式）": null,
        "多機能トイレ数": null,
        "車椅子使用者用トイレ有無": null,
        "乳幼児用設備設置トイレ有無": null,
        "オストメイト設置トイレ有無": null,
        "利用開始時間": null,
        "利用終了時間": null,
        "利用可能時間特記事項": null,
        "画像": null,
        "画像_ライセンス": null,
        "備考": null
      }
    },
    {
      "type": "Feature",
      "geometry": {
        "type": "Point",
        "coordinates": [
          131.251744,
          33.960203
        ]
      },
      "properties": {
        "市区町村コード": 352021,
        "NO": 58,
        "都道府県名": "山口県",
        "市区町村名": "宇部市",
        "name": "真締川公園１",
        "名称_カナ": "マジメガワコウエン１",
        "名称_英語": null,
        "address": "山口県宇部市西琴芝一丁目",
        "方書": null,
        "設置位置": "真締川左岸側（東側）、宇部大橋（山大病院通り）付近",
        "男性トイレ総数": 3,
        "男性トイレ数（小便器）": 2.0,
        "男性トイレ数（和式）": 1.0,
        "男性トイレ数（洋式）": null,
        "女性トイレ総数": 2,
        "女性トイレ数（和式）": 2.0,
        "女性トイレ数（洋式）": null,
        "男女共用トイレ総数": 1,
        "男女共用トイレ数（和式）": null,
        "男女共用トイレ数（洋式）": 1.0,
        "多機能トイレ数": 1.0,
        "車椅子使用者用トイレ有無": "有",
        "乳幼児用設備設置トイレ有無": null,
        "オストメイト設置トイレ有無": null,
        "利用開始時間": null,
        "利用終了時間": null,
        "利用可能時間特記事項": null,
        "画像": null,
        "画像_ライセンス": null,
        "備考": null
      }
    },
    {
      "type": "Feature",
      "geometry": {
        "type": "Point",
        "coordinates": [
          131.248051,
          33.956696
        ]
      },
      "properties": {
        "市区町村コード": 352021,
        "NO": 59,
        "都道府県名": "山口県",
        "市区町村名": "宇部市",
        "name": "真締川公園２",
        "名称_カナ": "マジメガワコウエン２",
        "名称_英語": null,
        "address": "山口県宇部市朝日町",
        "方書": null,
        "設置位置": "真締川右岸側（西側）、樋ノ口橋（産業道路）から下流側",
        "男性トイレ総数": 1,
        "男性トイレ数（小便器）": 1.0,
        "男性トイレ数（和式）": null,
        "男性トイレ数（洋式）": null,
        "女性トイレ総数": 0,
        "女性トイレ数（和式）": null,
        "女性トイレ数（洋式）": null,
        "男女共用トイレ総数": 0,
        "男女共用トイレ数（和式）": null,
        "男女共用トイレ数（洋式）": null,
        "多機能トイレ数": 1.0,
        "車椅子使用者用トイレ有無": "有",
        "乳幼児用設備設置トイレ有無": "有",
        "オストメイト設置トイレ有無": null,
        "利用開始時間": null,
        "利用終了時間": null,
        "利用可能時間特記事項": null,
        "画像": null,
        "画像_ライセンス": null,
        "備考": null
      }
    },
    {
      "type": "Feature",
      "geometry": {
        "type": "Point",
        "coordinates": [
          131.246621,
          33.953009
        ]
      },
      "properties": {
        "市区町村コード": 352021,
        "NO": 60,
        "都道府県名": "山口県",
        "市区町村名": "宇部市",
        "name": "真締川公園３",
        "名称_カナ": "マジメガワコウエン３",
        "名称_英語": null,
        "address": "山口県宇部市寿町一丁目",
        "方書": null,
        "設置位置": "真締川左岸側（東側）、緑橋付近",
        "男性トイレ総数": 3,
        "男性トイレ数（小便器）": 3.0,
        "男性トイレ数（和式）": null,
        "男性トイレ数（洋式）": null,
        "女性トイレ総数": 0,
        "女性トイレ数（和式）": null,
        "女性トイレ数（洋式）": null,
        "男女共用トイレ総数": 2,
        "男女共用トイレ数（和式）": 2.0,
        "男女共用トイレ数（洋式）": null,
        "多機能トイレ数": null,
        "車椅子使用者用トイレ有無": null,
        "乳幼児用設備設置トイレ有無": null,
        "オストメイト設置トイレ有無": null,
        "利用開始時間": null,
        "利用終了時間": null,
        "利用可能時間特記事項": null,
        "画像": null,
        "画像_ライセンス": null,
        "備考": null
      }
    },
    {
      "type": "Feature",
      "geometry": {
        "type": "Point",
        "coordinates": [
          131.245723,
          33.950753
        ]
      },
      "properties": {
        "市区町村コード": 352021,
        "NO": 61,
        "都道府県名": "山口県",
        "市区町村名": "宇部市",
        "name": "真締川公園４",
        "名称_カナ": "マジメガワコウエン４",
        "名称_英語": null,
        "address": "山口県宇部市新天町一丁目",
        "方書": null,
        "設置位置": "真締川左岸側（東側）、ヒストリア宇部横、新錦橋付近",
        "男性トイレ総数": 2,
        "男性トイレ数（小便器）": 2.0,
        "男性トイレ数（和式）": null,
        "男性トイレ数（洋式）": null,
        "女性トイレ総数": 0,
        "女性トイレ数（和式）": null,
        "女性トイレ数（洋式）": null,
        "男女共用トイレ総数": 2,
        "男女共用トイレ数（和式）": 2.0,
        "男女共用トイレ数（洋式）": null,
        "多機能トイレ数": null,
        "車椅子使用者用トイレ有無": null,
        "乳幼児用設備設置トイレ有無": null,
        "オストメイト設置トイレ有無": null,
        "利用開始時間": null,
        "利用終了時間": null,
        "利用可能時間特記事項": null,
        "画像": null,
        "画像_ライセンス": null,
        "備考": null
      }
    },
    {
      "type": "Feature",
      "geometry": {
        "type": "Point",
        "coordinates": [
          131.244989,
          33.949034
        ]
      },
      "properties": {
        "市区町村コード": 352021,
        "NO": 62,
        "都道府県名": "山口県",
        "市区町村名": "宇部市",
        "name": "真締川公園５",
        "名称_カナ": "マジメガワコウエン５",
        "名称_英語": null,
        "address": "山口県宇部市東本町一丁目",
        "方書": null,
        "設置位置": "真締川左岸側（東側）、真締大橋から上流側",
        "男性トイレ総数": 1,
        "男性トイレ数（小便器）": 1.0,
        "男性トイレ数（和式）": null,
        "男性トイレ数（洋式）": null,
        "女性トイレ総数": 0,
        "女性トイレ数（和式）": null,
        "女性トイレ数（洋式）": null,
        "男女共用トイレ総数": 1,
        "男女共用トイレ数（和式）": null,
        "男女共用トイレ数（洋式）": 1.0,
        "多機能トイレ数": 1.0,
        "車椅子使用者用トイレ有無": "有",
        "乳幼児用設備設置トイレ有無": "有",
        "オストメイト設置トイレ有無": null,
        "利用開始時間": null,
        "利用終了時間": null,
        "利用可能時間特記事項": null,
        "画像": null,
        "画像_ライセンス": null,
        "備考": null
      }
    },
    {
      "type": "Feature",
      "geometry": {
        "type": "Point",
        "coordinates": [
          131.307666,
          33.950338
        ]
      },
      "properties": {
        "市区町村コード": 352021,
        "NO": 63,
        "都道府県名": "山口県",
        "市区町村名": "宇部市",
        "name": "床波公園",
        "名称_カナ": "トコナミコウエン",
        "名称_英語": null,
        "address": "山口県宇部市床波一丁目",
        "方書": null,
        "設置位置": "公園の南側中央付近、床波漁協の道路を挟んだ北側",
        "男性トイレ総数": 2,
        "男性トイレ数（小便器）": 2.0,
        "男性トイレ数（和式）": null,
        "男性トイレ数（洋式）": null,
        "女性トイレ総数": 0,
        "女性トイレ数（和式）": null,
        "女性トイレ数（洋式）": null,
        "男女共用トイレ総数": 1,
        "男女共用トイレ数（和式）": 1.0,
        "男女共用トイレ数（洋式）": null,
        "多機能トイレ数": null,
        "車椅子使用者用トイレ有無": null,
        "乳幼児用設備設置トイレ有無": null,
        "オストメイト設置トイレ有無": null,
        "利用開始時間": null,
        "利用終了時間": null,
        "利用可能時間特記事項": null,
        "画像": null,
        "画像_ライセンス": null,
        "備考": null
      }
    },
    {
      "type": "Feature",
      "geometry": {
        "type": "Point",
        "coordinates": [
          131.260514,
          33.978189
        ]
      },
      "properties": {
        "市区町村コード": 352021,
        "NO": 64,
        "都道府県名": "山口県",
        "市区町村名": "宇部市",
        "name": "小羽山中央公園",
        "名称_カナ": "オバヤマチュウオウコウエン",
        "名称_英語": null,
        "address": "山口県宇部市南小羽山町二丁目",
        "方書": null,
        "設置位置": "公園の北側",
        "男性トイレ総数": 3,
        "男性トイレ数（小便器）": 3.0,
        "男性トイレ数（和式）": null,
        "男性トイレ数（洋式）": null,
        "女性トイレ総数": 0,
        "女性トイレ数（和式）": null,
        "女性トイレ数（洋式）": null,
        "男女共用トイレ総数": 2,
        "男女共用トイレ数（和式）": 2.0,
        "男女共用トイレ数（洋式）": null,
        "多機能トイレ数": null,
        "車椅子使用者用トイレ有無": null,
        "乳幼児用設備設置トイレ有無": null,
        "オストメイト設置トイレ有無": null,
        "利用開始時間": null,
        "利用終了時間": null,
        "利用可能時間特記事項": null,
        "画像": null,
        "画像_ライセンス": null,
        "備考": null
      }
    },
    {
      "type": "Feature",
      "geometry": {
        "type": "Point",
        "coordinates": [
          131.258437,
          33.964521
        ]
      },
      "properties": {
        "市区町村コード": 352021,
        "NO": 65,
        "都道府県名": "山口県",
        "市区町村名": "宇部市",
        "name": "京納児童遊園",
        "名称_カナ": "キョウノウジドウユウエン",
        "名称_英語": null,
        "address": "山口県宇部市中村三丁目",
        "方書": null,
        "設置位置": "公園の北側",
        "男性トイレ総数": 1,
        "男性トイレ数（小便器）": 1.0,
        "男性トイレ数（和式）": null,
        "男性トイレ数（洋式）": null,
        "女性トイレ総数": 0,
        "女性トイレ数（和式）": null,
        "女性トイレ数（洋式）": null,
        "男女共用トイレ総数": 1,
        "男女共用トイレ数（和式）": 1.0,
        "男女共用トイレ数（洋式）": null,
        "多機能トイレ数": null,
        "車椅子使用者用トイレ有無": null,
        "乳幼児用設備設置トイレ有無": null,
        "オストメイト設置トイレ有無": null,
        "利用開始時間": null,
        "利用終了時間": null,
        "利用可能時間特記事項": null,
        "画像": null,
        "画像_ライセンス": null,
        "備考": null
      }
    },
    {
      "type": "Feature",
      "geometry": {
        "type": "Point",
        "coordinates": [
          131.329957,
          33.996566
        ]
      },
      "properties": {
        "市区町村コード": 352021,
        "NO": 66,
        "都道府県名": "山口県",
        "市区町村名": "宇部市",
        "name": "大田児童遊園",
        "名称_カナ": "オオタジドウユウエン",
        "名称_英語": null,
        "address": "山口県宇部市大字東岐波",
        "方書": null,
        "設置位置": "公園の南西側、大田集会所の裏",
        "男性トイレ総数": 0,
        "男性トイレ数（小便器）": null,
        "男性トイレ数（和式）": null,
        "男性トイレ数（洋式）": null,
        "女性トイレ総数": 0,
        "女性トイレ数（和式）": null,
        "女性トイレ数（洋式）": null,
        "男女共用トイレ総数": 1,
        "男女共用トイレ数（和式）": 1.0,
        "男女共用トイレ数（洋式）": null,
        "多機能トイレ数": null,
        "車椅子使用者用トイレ有無": null,
        "乳幼児用設備設置トイレ有無": null,
        "オストメイト設置トイレ有無": null,
        "利用開始時間": null,
        "利用終了時間": null,
        "利用可能時間特記事項": null,
        "画像": null,
        "画像_ライセンス": null,
        "備考": null
      }
    },
    {
      "type": "Feature",
      "geometry": {
        "type": "Point",
        "coordinates": [
          131.260929,
          33.960658
        ]
      },
      "properties": {
        "市区町村コード": 352021,
        "NO": 67,
        "都道府県名": "山口県",
        "市区町村名": "宇部市",
        "name": "参宮通児童遊園",
        "名称_カナ": "サングウドオリジドウユウエン",
        "名称_英語": null,
        "address": "山口県宇部市中村三丁目",
        "方書": null,
        "設置位置": "公園の北側",
        "男性トイレ総数": 0,
        "男性トイレ数（小便器）": null,
        "男性トイレ数（和式）": null,
        "男性トイレ数（洋式）": null,
        "女性トイレ総数": 0,
        "女性トイレ数（和式）": null,
        "女性トイレ数（洋式）": null,
        "男女共用トイレ総数": 1,
        "男女共用トイレ数（和式）": 1.0,
        "男女共用トイレ数（洋式）": null,
        "多機能トイレ数": null,
        "車椅子使用者用トイレ有無": null,
        "乳幼児用設備設置トイレ有無": null,
        "オストメイト設置トイレ有無": null,
        "利用開始時間": null,
        "利用終了時間": null,
        "利用可能時間特記事項": null,
        "画像": null,
        "画像_ライセンス": null,
        "備考": null
      }
    },
    {
      "type": "Feature",
      "geometry": {
        "type": "Point",
        "coordinates": [
          131.213349,
          34.008253
        ]
      },
      "properties": {
        "市区町村コード": 352021,
        "NO": 68,
        "都道府県名": "山口県",
        "市区町村名": "宇部市",
        "name": "迫条児童遊園",
        "名称_カナ": "サコジョウジドウユウエン",
        "名称_英語": null,
        "address": "山口県宇部市大字際波",
        "方書": null,
        "設置位置": "公園の北東側",
        "男性トイレ総数": 0,
        "男性トイレ数（小便器）": null,
        "男性トイレ数（和式）": null,
        "男性トイレ数（洋式）": null,
        "女性トイレ総数": 0,
        "女性トイレ数（和式）": null,
        "女性トイレ数（洋式）": null,
        "男女共用トイレ総数": 1,
        "男女共用トイレ数（和式）": 1.0,
        "男女共用トイレ数（洋式）": null,
        "多機能トイレ数": null,
        "車椅子使用者用トイレ有無": null,
        "乳幼児用設備設置トイレ有無": null,
        "オストメイト設置トイレ有無": null,
        "利用開始時間": null,
        "利用終了時間": null,
        "利用可能時間特記事項": null,
        "画像": null,
        "画像_ライセンス": null,
        "備考": null
      }
    },
    {
      "type": "Feature",
      "geometry": {
        "type": "Point",
        "coordinates": [
          131.331485,
          33.959746
        ]
      },
      "properties": {
        "市区町村コード": 352021,
        "NO": 69,
        "都道府県名": "山口県",
        "市区町村名": "宇部市",
        "name": "村松児童遊園",
        "名称_カナ": "ムラマツジドウユウエン",
        "名称_英語": null,
        "address": "山口県宇部市大字西岐波",
        "方書": null,
        "設置位置": "公園の南側",
        "男性トイレ総数": 1,
        "男性トイレ数（小便器）": 1.0,
        "男性トイレ数（和式）": null,
        "男性トイレ数（洋式）": null,
        "女性トイレ総数": 0,
        "女性トイレ数（和式）": null,
        "女性トイレ数（洋式）": null,
        "男女共用トイレ総数": 1,
        "男女共用トイレ数（和式）": 1.0,
        "男女共用トイレ数（洋式）": null,
        "多機能トイレ数": null,
        "車椅子使用者用トイレ有無": null,
        "乳幼児用設備設置トイレ有無": null,
        "オストメイト設置トイレ有無": null,
        "利用開始時間": null,
        "利用終了時間": null,
        "利用可能時間特記事項": null,
        "画像": null,
        "画像_ライセンス": null,
        "備考": null
      }
    },
    {
      "type": "Feature",
      "geometry": {
        "type": "Point",
        "coordinates": [
          131.22961,
          33.993213
        ]
      },
      "properties": {
        "市区町村コード": 352021,
        "NO": 70,
        "都道府県名": "山口県",
        "市区町村名": "宇部市",
        "name": "沖の旦児童遊園",
        "名称_カナ": "オキノダンジドウユウエン",
        "名称_英語": null,
        "address": "山口県宇部市大字沖ノ旦",
        "方書": null,
        "設置位置": "自治会館の南側",
        "男性トイレ総数": 1,
        "男性トイレ数（小便器）": 1.0,
        "男性トイレ数（和式）": null,
        "男性トイレ数（洋式）": null,
        "女性トイレ総数": 0,
        "女性トイレ数（和式）": null,
        "女性トイレ数（洋式）": null,
        "男女共用トイレ総数": 1,
        "男女共用トイレ数（和式）": 1.0,
        "男女共用トイレ数（洋式）": null,
        "多機能トイレ数": null,
        "車椅子使用者用トイレ有無": null,
        "乳幼児用設備設置トイレ有無": null,
        "オストメイト設置トイレ有無": null,
        "利用開始時間": null,
        "利用終了時間": null,
        "利用可能時間特記事項": null,
        "画像": null,
        "画像_ライセンス": null,
        "備考": null
      }
    },
    {
      "type": "Feature",
      "geometry": {
        "type": "Point",
        "coordinates": [
          131.259796,
          33.962926
        ]
      },
      "properties": {
        "市区町村コード": 352021,
        "NO": 71,
        "都道府県名": "山口県",
        "市区町村名": "宇部市",
        "name": "生野児童遊園",
        "名称_カナ": "イクノジドウユウエン",
        "名称_英語": null,
        "address": "山口県宇部市中村三丁目",
        "方書": null,
        "設置位置": "公園の西側",
        "男性トイレ総数": 0,
        "男性トイレ数（小便器）": null,
        "男性トイレ数（和式）": null,
        "男性トイレ数（洋式）": null,
        "女性トイレ総数": 0,
        "女性トイレ数（和式）": null,
        "女性トイレ数（洋式）": null,
        "男女共用トイレ総数": 1,
        "男女共用トイレ数（和式）": 1.0,
        "男女共用トイレ数（洋式）": null,
        "多機能トイレ数": null,
        "車椅子使用者用トイレ有無": null,
        "乳幼児用設備設置トイレ有無": null,
        "オストメイト設置トイレ有無": null,
        "利用開始時間": null,
        "利用終了時間": null,
        "利用可能時間特記事項": null,
        "画像": null,
        "画像_ライセンス": null,
        "備考": null
      }
    },
    {
      "type": "Feature",
      "geometry": {
        "type": "Point",
        "coordinates": [
          131.263547,
          33.960472
        ]
      },
      "properties": {
        "市区町村コード": 352021,
        "NO": 72,
        "都道府県名": "山口県",
        "市区町村名": "宇部市",
        "name": "上宇部中学校通り児童遊園",
        "名称_カナ": "カミウベチュウガッコウドオリジドウユウエン",
        "名称_英語": null,
        "address": "山口県宇部市沼二丁目",
        "方書": null,
        "設置位置": "北東側の入り口付近",
        "男性トイレ総数": 0,
        "男性トイレ数（小便器）": null,
        "男性トイレ数（和式）": null,
        "男性トイレ数（洋式）": null,
        "女性トイレ総数": 0,
        "女性トイレ数（和式）": null,
        "女性トイレ数（洋式）": null,
        "男女共用トイレ総数": 1,
        "男女共用トイレ数（和式）": 1.0,
        "男女共用トイレ数（洋式）": null,
        "多機能トイレ数": null,
        "車椅子使用者用トイレ有無": null,
        "乳幼児用設備設置トイレ有無": null,
        "オストメイト設置トイレ有無": null,
        "利用開始時間": null,
        "利用終了時間": null,
        "利用可能時間特記事項": null,
        "画像": null,
        "画像_ライセンス": null,
        "備考": null
      }
    },
    {
      "type": "Feature",
      "geometry": {
        "type": "Point",
        "coordinates": [
          131.229591,
          34.007054
        ]
      },
      "properties": {
        "市区町村コード": 352021,
        "NO": 74,
        "都道府県名": "山口県",
        "市区町村名": "宇部市",
        "name": "山の手１号児童遊園",
        "名称_カナ": "ヤマノテ１ゴウジドウユウエン",
        "名称_英語": null,
        "address": "山口県宇部市山の手町",
        "方書": null,
        "設置位置": "公園の南側",
        "男性トイレ総数": 0,
        "男性トイレ数（小便器）": null,
        "男性トイレ数（和式）": null,
        "男性トイレ数（洋式）": null,
        "女性トイレ総数": 0,
        "女性トイレ数（和式）": null,
        "女性トイレ数（洋式）": null,
        "男女共用トイレ総数": 1,
        "男女共用トイレ数（和式）": 1.0,
        "男女共用トイレ数（洋式）": null,
        "多機能トイレ数": null,
        "車椅子使用者用トイレ有無": null,
        "乳幼児用設備設置トイレ有無": null,
        "オストメイト設置トイレ有無": null,
        "利用開始時間": null,
        "利用終了時間": null,
        "利用可能時間特記事項": null,
        "画像": null,
        "画像_ライセンス": null,
        "備考": null
      }
    },
    {
      "type": "Feature",
      "geometry": {
        "type": "Point",
        "coordinates": [
          131.278913,
          33.970816
        ]
      },
      "properties": {
        "市区町村コード": 352021,
        "NO": 75,
        "都道府県名": "山口県",
        "市区町村名": "宇部市",
        "name": "ひらきニュータウン第１号公園",
        "名称_カナ": "ヒラキニュータウンダイ１ゴウコウエン",
        "名称_英語": null,
        "address": "山口県宇部市ひらき台二丁目",
        "方書": null,
        "設置位置": "公園の西側",
        "男性トイレ総数": 2,
        "男性トイレ数（小便器）": 2.0,
        "男性トイレ数（和式）": null,
        "男性トイレ数（洋式）": null,
        "女性トイレ総数": 0,
        "女性トイレ数（和式）": null,
        "女性トイレ数（洋式）": null,
        "男女共用トイレ総数": 1,
        "男女共用トイレ数（和式）": 1.0,
        "男女共用トイレ数（洋式）": null,
        "多機能トイレ数": null,
        "車椅子使用者用トイレ有無": null,
        "乳幼児用設備設置トイレ有無": null,
        "オストメイト設置トイレ有無": null,
        "利用開始時間": null,
        "利用終了時間": null,
        "利用可能時間特記事項": null,
        "画像": null,
        "画像_ライセンス": null,
        "備考": null
      }
    },
    {
      "type": "Feature",
      "geometry": {
        "type": "Point",
        "coordinates": [
          131.298096,
          33.967376
        ]
      },
      "properties": {
        "市区町村コード": 352021,
        "NO": 76,
        "都道府県名": "山口県",
        "市区町村名": "宇部市",
        "name": "展望公園",
        "名称_カナ": "テンボウコウエン",
        "名称_英語": null,
        "address": "山口県宇部市大字西岐波",
        "方書": null,
        "設置位置": "西側の駐車場横",
        "男性トイレ総数": 3,
        "男性トイレ数（小便器）": 3.0,
        "男性トイレ数（和式）": null,
        "男性トイレ数（洋式）": null,
        "女性トイレ総数": 0,
        "女性トイレ数（和式）": null,
        "女性トイレ数（洋式）": null,
        "男女共用トイレ総数": 2,
        "男女共用トイレ数（和式）": 2.0,
        "男女共用トイレ数（洋式）": null,
        "多機能トイレ数": null,
        "車椅子使用者用トイレ有無": null,
        "乳幼児用設備設置トイレ有無": null,
        "オストメイト設置トイレ有無": null,
        "利用開始時間": null,
        "利用終了時間": null,
        "利用可能時間特記事項": null,
        "画像": null,
        "画像_ライセンス": null,
        "備考": null
      }
    },
    {
      "type": "Feature",
      "geometry": {
        "type": "Point",
        "coordinates": [
          131.201334,
          34.000027
        ]
      },
      "properties": {
        "市区町村コード": 352021,
        "NO": 77,
        "都道府県名": "山口県",
        "市区町村名": "宇部市",
        "name": "際波台グリーンタウン第二公園",
        "名称_カナ": "キワナミダイグリーンタウンダイニコウエン",
        "名称_英語": null,
        "address": "山口県宇部市西際波台二丁目",
        "方書": null,
        "設置位置": "公園の東側中央付近",
        "男性トイレ総数": 0,
        "男性トイレ数（小便器）": null,
        "男性トイレ数（和式）": null,
        "男性トイレ数（洋式）": null,
        "女性トイレ総数": 0,
        "女性トイレ数（和式）": null,
        "女性トイレ数（洋式）": null,
        "男女共用トイレ総数": 1,
        "男女共用トイレ数（和式）": 1.0,
        "男女共用トイレ数（洋式）": null,
        "多機能トイレ数": null,
        "車椅子使用者用トイレ有無": null,
        "乳幼児用設備設置トイレ有無": null,
        "オストメイト設置トイレ有無": null,
        "利用開始時間": null,
        "利用終了時間": null,
        "利用可能時間特記事項": null,
        "画像": null,
        "画像_ライセンス": null,
        "備考": null
      }
    },
    {
      "type": "Feature",
      "geometry": {
        "type": "Point",
        "coordinates": [
          131.28307,
          34.126999
        ]
      },
      "properties": {
        "市区町村コード": 352021,
        "NO": 78,
        "都道府県名": "山口県",
        "市区町村名": "宇部市",
        "name": "西小公園",
        "名称_カナ": "ニシショウコウエン",
        "名称_英語": null,
        "address": "山口県宇部市大字東吉部",
        "方書": null,
        "設置位置": "公園の北西側",
        "男性トイレ総数": 2,
        "男性トイレ数（小便器）": 1.0,
        "男性トイレ数（和式）": 1.0,
        "男性トイレ数（洋式）": null,
        "女性トイレ総数": 2,
        "女性トイレ数（和式）": 2.0,
        "女性トイレ数（洋式）": null,
        "男女共用トイレ総数": 1,
        "男女共用トイレ数（和式）": null,
        "男女共用トイレ数（洋式）": 1.0,
        "多機能トイレ数": 1.0,
        "車椅子使用者用トイレ有無": "有",
        "乳幼児用設備設置トイレ有無": null,
        "オストメイト設置トイレ有無": null,
        "利用開始時間": null,
        "利用終了時間": null,
        "利用可能時間特記事項": null,
        "画像": null,
        "画像_ライセンス": null,
        "備考": null
      }
    },
    {
      "type": "Feature",
      "geometry": {
        "type": "Point",
        "coordinates": [
          131.284067,
          34.125295
        ]
      },
      "properties": {
        "市区町村コード": 352021,
        "NO": 79,
        "都道府県名": "山口県",
        "市区町村名": "宇部市",
        "name": "南小公園",
        "名称_カナ": "ミナミショウコウエン",
        "名称_英語": null,
        "address": "山口県宇部市大字東吉部",
        "方書": null,
        "設置位置": "公園の東側",
        "男性トイレ総数": 2,
        "男性トイレ数（小便器）": 1.0,
        "男性トイレ数（和式）": 1.0,
        "男性トイレ数（洋式）": null,
        "女性トイレ総数": 1,
        "女性トイレ数（和式）": 1.0,
        "女性トイレ数（洋式）": null,
        "男女共用トイレ総数": 1,
        "男女共用トイレ数（和式）": null,
        "男女共用トイレ数（洋式）": 1.0,
        "多機能トイレ数": 1.0,
        "車椅子使用者用トイレ有無": "有",
        "乳幼児用設備設置トイレ有無": null,
        "オストメイト設置トイレ有無": null,
        "利用開始時間": null,
        "利用終了時間": null,
        "利用可能時間特記事項": null,
        "画像": null,
        "画像_ライセンス": null,
        "備考": null
      }
    },
    {
      "type": "Feature",
      "geometry": {
        "type": "Point",
        "coordinates": [
          131.221757,
          34.043004
        ]
      },
      "properties": {
        "市区町村コード": 352021,
        "NO": 80,
        "都道府県名": "山口県",
        "市区町村名": "宇部市",
        "name": "船木中央公園",
        "名称_カナ": "フナキチュウオウコウエン",
        "名称_英語": null,
        "address": "山口県宇部市大字船木",
        "方書": null,
        "設置位置": "南側の駐車場横",
        "男性トイレ総数": 2,
        "男性トイレ数（小便器）": 1.0,
        "男性トイレ数（和式）": null,
        "男性トイレ数（洋式）": 1.0,
        "女性トイレ総数": 1,
        "女性トイレ数（和式）": null,
        "女性トイレ数（洋式）": 1.0,
        "男女共用トイレ総数": 0,
        "男女共用トイレ数（和式）": null,
        "男女共用トイレ数（洋式）": null,
        "多機能トイレ数": 1.0,
        "車椅子使用者用トイレ有無": "有",
        "乳幼児用設備設置トイレ有無": "有",
        "オストメイト設置トイレ有無": null,
        "利用開始時間": null,
        "利用終了時間": null,
        "利用可能時間特記事項": null,
        "画像": null,
        "画像_ライセンス": null,
        "備考": null
      }
    },
    {
      "type": "Feature",
      "geometry": {
        "type": "Point",
        "coordinates": [
          131.243427,
          33.954596
        ]
      },
      "properties": {
        "市区町村コード": 352021,
        "NO": 81,
        "都道府県名": "山口県",
        "市区町村名": "宇部市",
        "name": "中央町",
        "名称_カナ": "チュウオウチョウ",
        "名称_英語": null,
        "address": "山口県宇部市中央町一丁目",
        "方書": null,
        "設置位置": "シンボルロードと小串通りとの交差点の北西側",
        "男性トイレ総数": 3,
        "男性トイレ数（小便器）": 2.0,
        "男性トイレ数（和式）": 1.0,
        "男性トイレ数（洋式）": null,
        "女性トイレ総数": 2,
        "女性トイレ数（和式）": 2.0,
        "女性トイレ数（洋式）": null,
        "男女共用トイレ総数": 1,
        "男女共用トイレ数（和式）": null,
        "男女共用トイレ数（洋式）": 1.0,
        "多機能トイレ数": 1.0,
        "車椅子使用者用トイレ有無": "有",
        "乳幼児用設備設置トイレ有無": null,
        "オストメイト設置トイレ有無": null,
        "利用開始時間": null,
        "利用終了時間": null,
        "利用可能時間特記事項": null,
        "画像": null,
        "画像_ライセンス": null,
        "備考": null
      }
    },
    {
      "type": "Feature",
      "geometry": {
        "type": "Point",
        "coordinates": [
          131.249583,
          33.948859
        ]
      },
      "properties": {
        "市区町村コード": 352021,
        "NO": 82,
        "都道府県名": "山口県",
        "市区町村名": "宇部市",
        "name": "中津瀬神社",
        "名称_カナ": "ナカツセジンジャ",
        "名称_英語": null,
        "address": "山口県宇部市新天町二丁目",
        "方書": null,
        "設置位置": "中津瀬神社の東側、国道１９０号沿い",
        "男性トイレ総数": 4,
        "男性トイレ数（小便器）": 2.0,
        "男性トイレ数（和式）": null,
        "男性トイレ数（洋式）": 2.0,
        "女性トイレ総数": 3,
        "女性トイレ数（和式）": null,
        "女性トイレ数（洋式）": 3.0,
        "男女共用トイレ総数": 1,
        "男女共用トイレ数（和式）": null,
        "男女共用トイレ数（洋式）": 1.0,
        "多機能トイレ数": 1.0,
        "車椅子使用者用トイレ有無": "有",
        "乳幼児用設備設置トイレ有無": "有",
        "オストメイト設置トイレ有無": "有",
        "利用開始時間": null,
        "利用終了時間": null,
        "利用可能時間特記事項": null,
        "画像": null,
        "画像_ライセンス": null,
        "備考": null
      }
    }
  ]
}